{
"type": "FeatureCollection",
"name": "kerala_landslides_glc",
"crs": { "type": "name", "properties": { "name": "urn:ogc:def:crs:OGC:1.3:CRS84" } },
"features": [
{ "type": "Feature", "properties": { "source_name": "ibnlive.in", "source_link": "http://ibnlive.in.com/news/landslides-in-parts-of-idukki/156453-60-116.html", "event_id": 3562, "event_date": "06/01/2011 11:00:00 PM", "event_time": null, "event_title": "Kottayam-Kattapana road, at Ellapara(Elappara) village, Idukki, Kerala", "event_description": "Jun 04, 2011   Heavy rain lashing the state has caused landslides at various parts of the district. A landslide was reported at Ellapara on Wednesday night disrupting the vehicular movement on the Kottayam-Kattapana road for a few hours. A house was partially damaged in the incident. No casualties have been reported so far. The traffic was restored after clearing off the mud from the road.", "location_description": "Kottayam-Kattapana road, at Ellapara(Elappara) village, Idukki, Kerala", "location_accuracy": "5km", "landslide_category": "landslide", "landslide_trigger": "downpour", "landslide_size": "medium", "landslide_setting": "unknown", "fatality_count": 0.0, "injury_count": null, "storm_name": null, "photo_link": null, "notes": null, "event_import_source": "glc", "event_import_id": 3562.0, "country_name": "India", "country_code": "IN", "admin_division_name": "Kerala", "admin_division_population": 33408.0, "gazeteer_closest_point": "Erāttupetta", "gazeteer_distance": 22.75221, "submitted_date": "04/01/2014 12:00:00 AM", "created_date": "11/20/2017 03:17:00 PM", "last_edited_date": "02/15/2018 03:51:00 PM", "longitude": 76.9792, "latitude": 9.6326, "index_right": 0, "GID_2": "IND.17.3_1", "GID_0": "IND", "COUNTRY": "India", "GID_1": "IND.17_1", "NAME_1": "Kerala", "NL_NAME_1": "NA", "NAME_2": "Idukki", "VARNAME_2": "Idikki", "NL_NAME_2": "NA", "TYPE_2": "District", "ENGTYPE_2": "District", "CC_2": "NA", "HASC_2": "IN.KL.ID" }, "geometry": { "type": "Point", "coordinates": [ 76.9792, 9.6326 ] } },
{ "type": "Feature", "properties": { "source_name": "United Nations Development Programme - Relief Web", "source_link": "http://www.reliefweb.int/rw/RWB.NSF/db900SID/MCON-74J2QF?OpenDocument", "event_id": 100, "event_date": "06/25/2007 12:00:00 AM", "event_time": null, "event_title": "Kozhikode", "event_description": "United Nations Development Programme - Relief Web", "location_description": "Kozhikode", "location_accuracy": "50km", "landslide_category": "landslide", "landslide_trigger": "rain", "landslide_size": "medium", "landslide_setting": "unknown", "fatality_count": null, "injury_count": null, "storm_name": null, "photo_link": null, "notes": null, "event_import_source": "glc", "event_import_id": 100.0, "country_name": "India", "country_code": "IN", "admin_division_name": "Kerala", "admin_division_population": 439922.0, "gazeteer_closest_point": "Kozhikode", "gazeteer_distance": 5.8806, "submitted_date": "04/01/2014 12:00:00 AM", "created_date": "11/20/2017 03:17:00 PM", "last_edited_date": "02/15/2018 03:51:00 PM", "longitude": 75.8275, "latitude": 11.2738, "index_right": 0, "GID_2": "IND.17.3_1", "GID_0": "IND", "COUNTRY": "India", "GID_1": "IND.17_1", "NAME_1": "Kerala", "NL_NAME_1": "NA", "NAME_2": "Idukki", "VARNAME_2": "Idikki", "NL_NAME_2": "NA", "TYPE_2": "District", "ENGTYPE_2": "District", "CC_2": "NA", "HASC_2": "IN.KL.ID" }, "geometry": { "type": "Point", "coordinates": [ 75.8275, 11.2738 ] } },
{ "type": "Feature", "properties": { "source_name": "personal communication", "source_link": null, "event_id": 554, "event_date": "05/28/2008 12:00:00 AM", "event_time": null, "event_title": "Periyanmala, Kottayam district, Kerala, India", "event_description": null, "location_description": "Periyanmala, Kottayam district, Kerala, India", "location_accuracy": "5km", "landslide_category": "landslide", "landslide_trigger": "downpour", "landslide_size": "medium", "landslide_setting": "unknown", "fatality_count": null, "injury_count": null, "storm_name": null, "photo_link": null, "notes": null, "event_import_source": "glc", "event_import_id": 554.0, "country_name": "India", "country_code": "IN", "admin_division_name": "Kerala", "admin_division_population": 33408.0, "gazeteer_closest_point": "Erāttupetta", "gazeteer_distance": 7.22205, "submitted_date": "04/01/2014 12:00:00 AM", "created_date": "11/20/2017 03:17:00 PM", "last_edited_date": "02/15/2018 03:51:00 PM", "longitude": 76.8403, "latitude": 9.7327, "index_right": 0, "GID_2": "IND.17.3_1", "GID_0": "IND", "COUNTRY": "India", "GID_1": "IND.17_1", "NAME_1": "Kerala", "NL_NAME_1": "NA", "NAME_2": "Idukki", "VARNAME_2": "Idikki", "NL_NAME_2": "NA", "TYPE_2": "District", "ENGTYPE_2": "District", "CC_2": "NA", "HASC_2": "IN.KL.ID" }, "geometry": { "type": "Point", "coordinates": [ 76.8403, 9.7327 ] } },
{ "type": "Feature", "properties": { "source_name": "ibnlive.in", "source_link": "http://ibnlive.in.com/news/crops-worth-rs-185-lakh-destroyed-in-idukki/156739-60-116.html", "event_id": 3568, "event_date": "06/02/2011 12:00:00 AM", "event_time": null, "event_title": "Thodpuzha(Thodupuzha) municipality, Idukki, Kerala", "event_description": "Jun 05, 2011 at 12:04pm IST  KATTAPPANA: The heavy rain which has been lashing the district for the last several days has caused heavy damage to crops and property. According to the Agriculture Department sources, crops worth Rs 18.5 lakh in 150 hectares of land have been destroyed. The farmers in Thodupuzha, Peermade and Idukki taluk suffered a major loss as the crops got damaged in the rain. Three houses were fully damaged and over 17 houses were partially damaged in several parts of the district. Landslides were reported in Thodupuzha, Kulamavvu, Munnar and Elappara in the last two days. Power supply was disrupted in many parts of Idukki owing to the snapping of transmission lines. Traffic on many roads in and around the district was also disrupted owing to landslides. Landslide occurred over Past 2 days.", "location_description": "Thodpuzha(Thodupuzha) municipality, Idukki, Kerala", "location_accuracy": "25km", "landslide_category": "landslide", "landslide_trigger": "downpour", "landslide_size": "medium", "landslide_setting": "unknown", "fatality_count": 0.0, "injury_count": null, "storm_name": null, "photo_link": null, "notes": null, "event_import_source": "glc", "event_import_id": 3568.0, "country_name": "India", "country_code": "IN", "admin_division_name": "Kerala", "admin_division_population": 1200.0, "gazeteer_closest_point": "Palackattumala", "gazeteer_distance": 16.43713, "submitted_date": "04/01/2014 12:00:00 AM", "created_date": "11/20/2017 03:17:00 PM", "last_edited_date": "02/15/2018 03:51:00 PM", "longitude": 76.7046, "latitude": 9.8721, "index_right": 0, "GID_2": "IND.17.3_1", "GID_0": "IND", "COUNTRY": "India", "GID_1": "IND.17_1", "NAME_1": "Kerala", "NL_NAME_1": "NA", "NAME_2": "Idukki", "VARNAME_2": "Idikki", "NL_NAME_2": "NA", "TYPE_2": "District", "ENGTYPE_2": "District", "CC_2": "NA", "HASC_2": "IN.KL.ID" }, "geometry": { "type": "Point", "coordinates": [ 76.7046, 9.8721 ] } },
{ "type": "Feature", "properties": { "source_name": "IBN", "source_link": "http://ibnlive.in.com/news/heavy-rain-landslide-wreak-havoc-on-central-travancore/283183-60-116.html", "event_id": 4486, "event_date": "08/17/2012 12:00:00 AM", "event_time": null, "event_title": "Chonamala, Periyamata, Vellampatta", "event_description": "Around seven persons were injured in a landslide that occurred at Pullupara, near Peruvanthanam in Idukki. Another landside wreaked havoc at Chonamala, Periyamala, Vellampatta and Palomala in Thalanad, and Karikad in Theekkoy panchayat.", "location_description": "Chonamala, Periyamata, Vellampatta", "location_accuracy": "unknown", "landslide_category": "landslide", "landslide_trigger": "downpour", "landslide_size": "medium", "landslide_setting": "unknown", "fatality_count": null, "injury_count": null, "storm_name": null, "photo_link": null, "notes": null, "event_import_source": "glc", "event_import_id": 4486.0, "country_name": "India", "country_code": "IN", "admin_division_name": "Kerala", "admin_division_population": 12659.0, "gazeteer_closest_point": "Periya", "gazeteer_distance": 2.55859, "submitted_date": "01/09/2016 12:18:00 AM", "created_date": "11/20/2017 03:17:00 PM", "last_edited_date": "02/15/2018 03:51:00 PM", "longitude": 76.803, "latitude": 9.7285, "index_right": 0, "GID_2": "IND.17.3_1", "GID_0": "IND", "COUNTRY": "India", "GID_1": "IND.17_1", "NAME_1": "Kerala", "NL_NAME_1": "NA", "NAME_2": "Idukki", "VARNAME_2": "Idikki", "NL_NAME_2": "NA", "TYPE_2": "District", "ENGTYPE_2": "District", "CC_2": "NA", "HASC_2": "IN.KL.ID" }, "geometry": { "type": "Point", "coordinates": [ 76.803, 9.7285 ] } },
{ "type": "Feature", "properties": { "source_name": "www.thehindu.com", "source_link": "http://www.thehindu.com/news/cities/Kochi/all-quiet-at-cheeyappara-falls-but-landslip-threat-looms-large/article5110181.ece", "event_id": 5278, "event_date": "08/05/2013 09:30:00 AM", "event_time": null, "event_title": "Cheeyappara Waterfalls, Ernakulam, Kerala", "event_description": "The otherwise lively site of Cheeyappara waterfalls on the Kochi-Dhanushkodi national highway is eerily quiet. On August 6, tragedy struck the tourist spot when a landslide shook the region and claimed three lives. A month later, the memories remain, and continue to hurt. More than a score of small shops that operated near the waterfall have been closed on a directive from the district administration and the National Highways Authority of India (NHAI). The Revenue Department had issued orders for the closure of the shops after geologists warned of further landslips at the site. Tourists stopping at the site of the landslide to take in the waterfall were advised not to park their vehicles there, said Adimali grama pancayat president P.V. Scariah. He said the site still posed serious danger and landslips were real possibilities as rains continued to drench the area. Forty-year-old Shanta, who ran a small shop selling snacks at Cheeyappara, said the landslide was still fresh in memory. Sh", "location_description": "Cheeyappara Waterfalls, Ernakulam, Kerala", "location_accuracy": "1km", "landslide_category": "mudslide", "landslide_trigger": "monsoon", "landslide_size": "medium", "landslide_setting": "unknown", "fatality_count": 5.0, "injury_count": null, "storm_name": null, "photo_link": null, "notes": null, "event_import_source": "glc", "event_import_id": 5278.0, "country_name": "India", "country_code": "IN", "admin_division_name": "Kerala", "admin_division_population": 25436.0, "gazeteer_closest_point": "Kuttampuzha", "gazeteer_distance": 14.99263, "submitted_date": "04/01/2014 12:00:00 AM", "created_date": "11/20/2017 03:17:00 PM", "last_edited_date": "02/15/2018 03:51:00 PM", "longitude": 76.8298, "latitude": 10.0539, "index_right": 0, "GID_2": "IND.17.3_1", "GID_0": "IND", "COUNTRY": "India", "GID_1": "IND.17_1", "NAME_1": "Kerala", "NL_NAME_1": "NA", "NAME_2": "Idukki", "VARNAME_2": "Idikki", "NL_NAME_2": "NA", "TYPE_2": "District", "ENGTYPE_2": "District", "CC_2": "NA", "HASC_2": "IN.KL.ID" }, "geometry": { "type": "Point", "coordinates": [ 76.8298, 10.0539 ] } },
{ "type": "Feature", "properties": { "source_name": "ibnlive.in", "source_link": "http://ibnlive.in.com/news/landslides-in-parts-of-idukki/156453-60-116.html", "event_id": 3557, "event_date": "05/31/2011 12:00:00 AM", "event_time": null, "event_title": "Kulamavu region, Kerala", "event_description": "Jun 04, 2011   Heavy rain lashing the state has caused landslides at various parts of the district. … Another landslide was reported in the Kulamavu region on Thursday. No damage or casualty were reported as the landslide occurred in a remote area.", "location_description": "Kulamavu region, Kerala", "location_accuracy": "10km", "landslide_category": "landslide", "landslide_trigger": "downpour", "landslide_size": "medium", "landslide_setting": "unknown", "fatality_count": 0.0, "injury_count": null, "storm_name": null, "photo_link": null, "notes": null, "event_import_source": "glc", "event_import_id": 3557.0, "country_name": "India", "country_code": "IN", "admin_division_name": "Kerala", "admin_division_population": 11248.0, "gazeteer_closest_point": "Idukki", "gazeteer_distance": 9.03648, "submitted_date": "04/01/2014 12:00:00 AM", "created_date": "11/20/2017 03:17:00 PM", "last_edited_date": "02/15/2018 03:51:00 PM", "longitude": 76.9006, "latitude": 9.8012, "index_right": 0, "GID_2": "IND.17.3_1", "GID_0": "IND", "COUNTRY": "India", "GID_1": "IND.17_1", "NAME_1": "Kerala", "NL_NAME_1": "NA", "NAME_2": "Idukki", "VARNAME_2": "Idikki", "NL_NAME_2": "NA", "TYPE_2": "District", "ENGTYPE_2": "District", "CC_2": "NA", "HASC_2": "IN.KL.ID" }, "geometry": { "type": "Point", "coordinates": [ 76.9006, 9.8012 ] } },
{ "type": "Feature", "properties": { "source_name": "www.deccanchronicle.com", "source_link": "http://www.deccanchronicle.com/130806/news-current-affairs/article/special-landslides-rain-havoc-kerala", "event_id": 5282, "event_date": "08/05/2013 12:00:00 AM", "event_time": null, "event_title": "Maniyarankudy, Kerala", "event_description": "as also Thankachan M. (56), in another incident at Maniyarankudy.", "location_description": "Maniyarankudy, Kerala", "location_accuracy": "5km", "landslide_category": "landslide", "landslide_trigger": "monsoon", "landslide_size": "medium", "landslide_setting": "unknown", "fatality_count": 1.0, "injury_count": null, "storm_name": null, "photo_link": null, "notes": null, "event_import_source": "glc", "event_import_id": 5282.0, "country_name": "India", "country_code": "IN", "admin_division_name": "Kerala", "admin_division_population": 11248.0, "gazeteer_closest_point": "Idukki", "gazeteer_distance": 6.15797, "submitted_date": "04/01/2014 12:00:00 AM", "created_date": "11/20/2017 03:17:00 PM", "last_edited_date": "02/15/2018 03:51:00 PM", "longitude": 76.9346, "latitude": 9.8957, "index_right": 0, "GID_2": "IND.17.3_1", "GID_0": "IND", "COUNTRY": "India", "GID_1": "IND.17_1", "NAME_1": "Kerala", "NL_NAME_1": "NA", "NAME_2": "Idukki", "VARNAME_2": "Idikki", "NL_NAME_2": "NA", "TYPE_2": "District", "ENGTYPE_2": "District", "CC_2": "NA", "HASC_2": "IN.KL.ID" }, "geometry": { "type": "Point", "coordinates": [ 76.9346, 9.8957 ] } },
{ "type": "Feature", "properties": { "source_name": "thaindian", "source_link": "http://www.thaindian.com/newsportal/enviornment/landslides-in-kozhikode-after-heavy-rain_100255752.html", "event_id": 1213, "event_date": "10/03/2009 12:00:00 AM", "event_time": null, "event_title": "Puddipadi, Kozhikode, Kerala ", "event_description": "Heavy rain lashing Kerala’s Kozhikode district for the past two days led to landslides at half a dozen places here Saturday. Revenue officials said that though there has been no loss of life, damage to crops and houses have been reported at places like Puthupady, Balussery and hilly areas where there is a large concentration of farmers.", "location_description": "Puddipadi, Kozhikode, Kerala ", "location_accuracy": "10km", "landslide_category": "landslide", "landslide_trigger": "downpour", "landslide_size": "medium", "landslide_setting": "unknown", "fatality_count": null, "injury_count": null, "storm_name": null, "photo_link": null, "notes": null, "event_import_source": "glc", "event_import_id": 1213.0, "country_name": "India", "country_code": "IN", "admin_division_name": "Kerala", "admin_division_population": 29602.0, "gazeteer_closest_point": "Kalpetta", "gazeteer_distance": 17.10449, "submitted_date": "04/01/2014 12:00:00 AM", "created_date": "11/20/2017 03:17:00 PM", "last_edited_date": "02/15/2018 03:51:00 PM", "longitude": 75.9957, "latitude": 11.4816, "index_right": 0, "GID_2": "IND.17.3_1", "GID_0": "IND", "COUNTRY": "India", "GID_1": "IND.17_1", "NAME_1": "Kerala", "NL_NAME_1": "NA", "NAME_2": "Idukki", "VARNAME_2": "Idikki", "NL_NAME_2": "NA", "TYPE_2": "District", "ENGTYPE_2": "District", "CC_2": "NA", "HASC_2": "IN.KL.ID" }, "geometry": { "type": "Point", "coordinates": [ 75.9957, 11.4816 ] } },
{ "type": "Feature", "properties": { "source_name": "ibnlive.in", "source_link": "http://ibnlive.in.com/news/rain-wreaks-havoc-in-kottayam/173995-60-116.html", "event_id": 3896, "event_date": "08/07/2011 12:00:00 AM", "event_time": null, "event_title": "Kottayam", "event_description": "KOTTAYAM: Heavy rain continued to wreak havoc in the district on Sunday. One person died and four houses were completely damaged in the downpour and landslides.  Over 40 houses were partially damaged. The deceased is Tijo Jose, 24, a guest lecturer of KE College, Mannanam. He lost his life while taking bath in the Pannakam River.  The roads in the Kanjirappally and Mundakkayam areas were blocked and the traffic along the Kanjirappally-Erattupettah Road was disrupted after the Chittar river breached the banks. The Manimala river also breached the banks causing damage.  Following the landslide that occurred on Saturday night, life in Peruvanthanam, Koruthode and Kokkayar areas were affected. In Erumely, three bridges across the Pampa river got submerged in floodwaters. Kanamala was the most affected area in the region.  All the roads leading to Sabarimala have been submerged. Traffic and power supply were disrupted in the area.  Traffic movement was disrupted for more than one hour o", "location_description": "Kottayam", "location_accuracy": "5km", "landslide_category": "landslide", "landslide_trigger": "downpour", "landslide_size": "medium", "landslide_setting": "unknown", "fatality_count": 1.0, "injury_count": null, "storm_name": null, "photo_link": null, "notes": null, "event_import_source": "glc", "event_import_id": 3896.0, "country_name": "India", "country_code": "IN", "admin_division_name": "Kerala", "admin_division_population": 59437.0, "gazeteer_closest_point": "Kottayam", "gazeteer_distance": 1.55505, "submitted_date": "04/01/2014 12:00:00 AM", "created_date": "11/20/2017 03:17:00 PM", "last_edited_date": "02/15/2018 03:51:00 PM", "longitude": 76.5289, "latitude": 9.5988, "index_right": 0, "GID_2": "IND.17.3_1", "GID_0": "IND", "COUNTRY": "India", "GID_1": "IND.17_1", "NAME_1": "Kerala", "NL_NAME_1": "NA", "NAME_2": "Idukki", "VARNAME_2": "Idikki", "NL_NAME_2": "NA", "TYPE_2": "District", "ENGTYPE_2": "District", "CC_2": "NA", "HASC_2": "IN.KL.ID" }, "geometry": { "type": "Point", "coordinates": [ 76.5289, 9.5988 ] } },
{ "type": "Feature", "properties": { "source_name": "thaindian", "source_link": "http://www.thaindian.com/newsportal/enviornment/landslides-in-kozhikode-after-heavy-rain_100255752.html", "event_id": 1212, "event_date": "10/03/2009 12:00:00 AM", "event_time": null, "event_title": "Balussery, Kozhikode, Kerala", "event_description": "Heavy rain lashing Kerala’s Kozhikode district for the past two days led to landslides at half a dozen places here Saturday. Revenue officials said that though there has been no loss of life, damage to crops and houses have been reported at places like Puthupady, Balussery and hilly areas where there is a large concentration of farmers.", "location_description": "Balussery, Kozhikode, Kerala", "location_accuracy": "10km", "landslide_category": "landslide", "landslide_trigger": "downpour", "landslide_size": "medium", "landslide_setting": "unknown", "fatality_count": null, "injury_count": null, "storm_name": null, "photo_link": null, "notes": null, "event_import_source": "glc", "event_import_id": 1212.0, "country_name": "India", "country_code": "IN", "admin_division_name": "Kerala", "admin_division_population": 24648.0, "gazeteer_closest_point": "Naduvannūr", "gazeteer_distance": 7.35169, "submitted_date": "04/01/2014 12:00:00 AM", "created_date": "11/20/2017 03:17:00 PM", "last_edited_date": "02/15/2018 03:51:00 PM", "longitude": 75.8289, "latitude": 11.4477, "index_right": 0, "GID_2": "IND.17.3_1", "GID_0": "IND", "COUNTRY": "India", "GID_1": "IND.17_1", "NAME_1": "Kerala", "NL_NAME_1": "NA", "NAME_2": "Idukki", "VARNAME_2": "Idikki", "NL_NAME_2": "NA", "TYPE_2": "District", "ENGTYPE_2": "District", "CC_2": "NA", "HASC_2": "IN.KL.ID" }, "geometry": { "type": "Point", "coordinates": [ 75.8289, 11.4477 ] } },
{ "type": "Feature", "properties": { "source_name": "kerals", "source_link": "http://www.kerals.com/kerala/landslides-2-killed-and-six-missing/", "event_id": 2654, "event_date": "10/27/2010 06:00:00 PM", "event_time": null, "event_title": "Poochapra(?), near Thodupuzha, Kattappana, Kerala", "event_description": "KATTAPPAN: The bodies of two women who died in major landslides in the evening on Wednesday at Poochapra near Thodupuzha were recovered by night.  At least six persons are missing and a house was completely washed away.  The bodies of Parackal Ealikutty, 65 and Mary, 45 were recoverd while a vast area was still under water, reports from here said.  Lack of lighting arrangements hindered rescue operations as the area was cut off from the main road.  The earth removers were trapped on the road and could not reach the spot.  Four families severely affected by the incident were safely shifted to a nearby government school.  At least seven landslides occurred in the close vicinity of the area.  At least four houses were severely affected or washed away in the landslips, it is feared.  Two auto rickshaws also fell beneath the mud, though all occupants escaped without hurt.  ", "location_description": "Poochapra(?), near Thodupuzha, Kattappana, Kerala", "location_accuracy": "25km", "landslide_category": "landslide", "landslide_trigger": "downpour", "landslide_size": "medium", "landslide_setting": "unknown", "fatality_count": 2.0, "injury_count": null, "storm_name": null, "photo_link": null, "notes": null, "event_import_source": "glc", "event_import_id": 2654.0, "country_name": "India", "country_code": "IN", "admin_division_name": "Kerala", "admin_division_population": 8571.0, "gazeteer_closest_point": "Lālam", "gazeteer_distance": 18.41892, "submitted_date": "04/01/2014 12:00:00 AM", "created_date": "11/20/2017 03:17:00 PM", "last_edited_date": "02/15/2018 03:51:00 PM", "longitude": 76.7705, "latitude": 9.8678, "index_right": 0, "GID_2": "IND.17.3_1", "GID_0": "IND", "COUNTRY": "India", "GID_1": "IND.17_1", "NAME_1": "Kerala", "NL_NAME_1": "NA", "NAME_2": "Idukki", "VARNAME_2": "Idikki", "NL_NAME_2": "NA", "TYPE_2": "District", "ENGTYPE_2": "District", "CC_2": "NA", "HASC_2": "IN.KL.ID" }, "geometry": { "type": "Point", "coordinates": [ 76.7705, 9.8678 ] } },
{ "type": "Feature", "properties": { "source_name": "thehindu", "source_link": "http://www.thehindu.com/news/states/kerala/article2333186.ece", "event_id": 3886, "event_date": "08/06/2011 12:00:00 AM", "event_time": null, "event_title": "Pallippady in Koruthode panchayat, Cholathadam in Poonjar Thekkekkara Pallippady in Koruthode panchayat and Cholathadam in Poonjar Thekkekkara panchay", "event_description": "Massive loss to crop and property have been reported from the high ranges areas of the district bordering neighbouring Idukki district in the heavy rains that lashed the area during the past 24 hours.  Major landslides have been reported from Pallippady in Koruthode panchayat, Cholathadam in Poonjar Thekkekkara panchayat and Kanamala in Erumeli Panchayat, during early hours of Sunday, authorities said. Parathode panchayat in near Kanjirappally witnessed widespread landslips. Losses to houses have also been reported from Koruthode panchayat.  Most of the affected area falls under Poonjar and Pala assembly segments. Speaking to The Hindu, P.C. George MLA, who represents Poonjar said, governmental machinery has already been pressed in for relief operations. The Erattupetta-Pala Road and Pala-Ponkunnam Road remained inundated in many areas disrupting vehicular traffic. ", "location_description": "Pallippady in Koruthode panchayat, Cholathadam in Poonjar Thekkekkara Pallippady in Koruthode panchayat and Cholathadam in Poonjar Thekkekkara panchayat", "location_accuracy": "unknown", "landslide_category": "landslide", "landslide_trigger": "downpour", "landslide_size": "medium", "landslide_setting": "unknown", "fatality_count": 0.0, "injury_count": null, "storm_name": null, "photo_link": null, "notes": null, "event_import_source": "glc", "event_import_id": 3886.0, "country_name": "India", "country_code": "IN", "admin_division_name": "Kerala", "admin_division_population": 38285.0, "gazeteer_closest_point": "Pathanāmthitta", "gazeteer_distance": 24.22781, "submitted_date": "04/01/2014 12:00:00 AM", "created_date": "11/20/2017 03:17:00 PM", "last_edited_date": "02/15/2018 03:51:00 PM", "longitude": 76.9371, "latitude": 9.4237, "index_right": 0, "GID_2": "IND.17.3_1", "GID_0": "IND", "COUNTRY": "India", "GID_1": "IND.17_1", "NAME_1": "Kerala", "NL_NAME_1": "NA", "NAME_2": "Idukki", "VARNAME_2": "Idikki", "NL_NAME_2": "NA", "TYPE_2": "District", "ENGTYPE_2": "District", "CC_2": "NA", "HASC_2": "IN.KL.ID" }, "geometry": { "type": "Point", "coordinates": [ 76.9371, 9.4237 ] } },
{ "type": "Feature", "properties": { "source_name": "www.deccanchronicle.com", "source_link": "http://www.deccanchronicle.com/130806/news-current-affairs/article/special-landslides-rain-havoc-kerala", "event_id": 5263, "event_date": "08/04/2013 11:00:00 PM", "event_time": null, "event_title": "Kunjuthanni, Idukki, Kerala", "event_description": "Late on Sunday night, a couple, Varikkayil Pappachan (78) of Kunjuthanni and his wife Thankamma (73) died when their house was flattened by a landslip.", "location_description": "Kunjuthanni, Idukki, Kerala", "location_accuracy": "5km", "landslide_category": "landslide", "landslide_trigger": "monsoon", "landslide_size": "medium", "landslide_setting": "unknown", "fatality_count": 2.0, "injury_count": null, "storm_name": null, "photo_link": null, "notes": null, "event_import_source": "glc", "event_import_id": 5263.0, "country_name": "India", "country_code": "IN", "admin_division_name": "Kerala", "admin_division_population": 68000.0, "gazeteer_closest_point": "Munnar", "gazeteer_distance": 10.46646, "submitted_date": "04/01/2014 12:00:00 AM", "created_date": "11/20/2017 03:17:00 PM", "last_edited_date": "02/15/2018 03:51:00 PM", "longitude": 77.0309, "latitude": 9.9995, "index_right": 0, "GID_2": "IND.17.3_1", "GID_0": "IND", "COUNTRY": "India", "GID_1": "IND.17_1", "NAME_1": "Kerala", "NL_NAME_1": "NA", "NAME_2": "Idukki", "VARNAME_2": "Idikki", "NL_NAME_2": "NA", "TYPE_2": "District", "ENGTYPE_2": "District", "CC_2": "NA", "HASC_2": "IN.KL.ID" }, "geometry": { "type": "Point", "coordinates": [ 77.0309, 9.9995 ] } },
{ "type": "Feature", "properties": { "source_name": "asianetindia", "source_link": "http://www.asianetindia.com/news/tribal-man-dies-landslide-idukki_98514.html", "event_id": 1289, "event_date": "11/08/2009 12:00:00 AM", "event_time": null, "event_title": "Marayoor in Idukki district, Kerala", "event_description": "Idukki, Sunday, November 08, 2009: A tribal man has died following a landslide near Marayoor in Idukki today. The deceased has been identified as Ganeshan (45), native of Olikkudy. Idukki, Sunday, November 08, 2009: Heavy rains lashing Idukki district for the past few days led to landslides and houses were damaged in the havoc. Most of the houses in low areas were damaged in the flood.", "location_description": "Marayoor in Idukki district, Kerala", "location_accuracy": "5km", "landslide_category": "landslide", "landslide_trigger": "downpour", "landslide_size": "medium", "landslide_setting": "unknown", "fatality_count": 1.0, "injury_count": null, "storm_name": null, "photo_link": null, "notes": null, "event_import_source": "glc", "event_import_id": 1289.0, "country_name": "India", "country_code": "IN", "admin_division_name": "Tamil Nadu", "admin_division_population": 6494.0, "gazeteer_closest_point": "Dhali", "gazeteer_distance": 23.04808, "submitted_date": "04/01/2014 12:00:00 AM", "created_date": "11/20/2017 03:17:00 PM", "last_edited_date": "02/15/2018 03:51:00 PM", "longitude": 77.1711, "latitude": 10.3018, "index_right": 0, "GID_2": "IND.17.3_1", "GID_0": "IND", "COUNTRY": "India", "GID_1": "IND.17_1", "NAME_1": "Kerala", "NL_NAME_1": "NA", "NAME_2": "Idukki", "VARNAME_2": "Idikki", "NL_NAME_2": "NA", "TYPE_2": "District", "ENGTYPE_2": "District", "CC_2": "NA", "HASC_2": "IN.KL.ID" }, "geometry": { "type": "Point", "coordinates": [ 77.1711, 10.3018 ] } },
{ "type": "Feature", "properties": { "source_name": "ibnlive.in", "source_link": "http://ibnlive.in.com/news/heavy-rain-landslide-wreak-havoc-on-central-travancore/283183-60-116.html", "event_id": 4485, "event_date": "08/17/2012 12:00:00 AM", "event_time": null, "event_title": "Palomala, Thaland", "event_description": "Around seven persons were injured in a landslide that occurred at Pullupara, near Peruvanthanam in Idukki. Another landside wreaked havoc at Chonamala, Periyamala, Vellampatta and Palomala in Thalanad, and Karikad in Theekkoy panchayat.", "location_description": "Palomala, Thaland", "location_accuracy": "5km", "landslide_category": "landslide", "landslide_trigger": "downpour", "landslide_size": "medium", "landslide_setting": "unknown", "fatality_count": null, "injury_count": null, "storm_name": null, "photo_link": null, "notes": null, "event_import_source": "glc", "event_import_id": 4485.0, "country_name": "India", "country_code": "IN", "admin_division_name": "Kerala", "admin_division_population": 33408.0, "gazeteer_closest_point": "Erāttupetta", "gazeteer_distance": 4.02155, "submitted_date": "04/01/2014 12:00:00 AM", "created_date": "11/20/2017 03:17:00 PM", "last_edited_date": "02/15/2018 03:51:00 PM", "longitude": 76.8081, "latitude": 9.7268, "index_right": 0, "GID_2": "IND.17.3_1", "GID_0": "IND", "COUNTRY": "India", "GID_1": "IND.17_1", "NAME_1": "Kerala", "NL_NAME_1": "NA", "NAME_2": "Idukki", "VARNAME_2": "Idikki", "NL_NAME_2": "NA", "TYPE_2": "District", "ENGTYPE_2": "District", "CC_2": "NA", "HASC_2": "IN.KL.ID" }, "geometry": { "type": "Point", "coordinates": [ 76.8081, 9.7268 ] } },
{ "type": "Feature", "properties": { "source_name": "www.deccanchronicle.com", "source_link": "http://www.deccanchronicle.com/130806/news-current-affairs/article/special-landslides-rain-havoc-kerala", "event_id": 5283, "event_date": "08/05/2013 12:00:00 AM", "event_time": null, "event_title": "Painavu, Kerala", "event_description": "At 56th Colony near Painav, Manalkuzhi Babu (52) who was sleeping in an outhouse was killed in the landslip", "location_description": "Painavu, Kerala", "location_accuracy": "5km", "landslide_category": "landslide", "landslide_trigger": "monsoon", "landslide_size": "medium", "landslide_setting": "unknown", "fatality_count": 1.0, "injury_count": null, "storm_name": null, "photo_link": null, "notes": null, "event_import_source": "glc", "event_import_id": 5283.0, "country_name": "India", "country_code": "IN", "admin_division_name": "Kerala", "admin_division_population": 11248.0, "gazeteer_closest_point": "Idukki", "gazeteer_distance": 2.22144, "submitted_date": "04/01/2014 12:00:00 AM", "created_date": "11/20/2017 03:17:00 PM", "last_edited_date": "02/15/2018 03:51:00 PM", "longitude": 76.9468, "latitude": 9.8539, "index_right": 0, "GID_2": "IND.17.3_1", "GID_0": "IND", "COUNTRY": "India", "GID_1": "IND.17_1", "NAME_1": "Kerala", "NL_NAME_1": "NA", "NAME_2": "Idukki", "VARNAME_2": "Idikki", "NL_NAME_2": "NA", "TYPE_2": "District", "ENGTYPE_2": "District", "CC_2": "NA", "HASC_2": "IN.KL.ID" }, "geometry": { "type": "Point", "coordinates": [ 76.9468, 9.8539 ] } },
{ "type": "Feature", "properties": { "source_name": "www.deccanchronicle.com", "source_link": "http://www.deccanchronicle.com/130806/news-current-affairs/article/special-landslides-rain-havoc-kerala", "event_id": 5277, "event_date": "08/05/2013 05:30:00 AM", "event_time": null, "event_title": "Cheeyapara Near Neriyamangalam, Kerala", "event_description": "At Cheeyapara near Neriyamangalam, a minor landslide at 5.30 am saw mud spilling onto the Aluva-Munnar highway. Local residents and fire-force personnel who arrived on the scene began clearing the road. A few vehicles from Munnar got stranded and people waited for the debris to get cleared. The scene changed within the next few minutes. The road would have been cleared in 15 minutes when around 9.30 am, another mudslide from as high as 400 feet, came hurtling down. In a few minutes there was a huge mound spread across 200 metres under which a dozen people were stranded. Three vehicles too got trapped under the debris. While nine people were rescued, it took a few hours before the bodies of three Ñ Devikulam taluk office driver P. Rajan (40), local resident T.Joshi (30) who was engaged in rescue operations and T.Jibin of Palakkad Ñ were  extricated. The bodies were sent for post-mortem. A vehicle of the Revenue Department, a Vista car and a Bolero were under the debris. Eight makeshift ", "location_description": "Cheeyapara Near Neriyamangalam, Kerala", "location_accuracy": "1km", "landslide_category": "mudslide", "landslide_trigger": "monsoon", "landslide_size": "small", "landslide_setting": "unknown", "fatality_count": 0.0, "injury_count": null, "storm_name": null, "photo_link": null, "notes": null, "event_import_source": "glc", "event_import_id": 5277.0, "country_name": "India", "country_code": "IN", "admin_division_name": "Kerala", "admin_division_population": 25436.0, "gazeteer_closest_point": "Kuttampuzha", "gazeteer_distance": 14.96174, "submitted_date": "04/01/2014 12:00:00 AM", "created_date": "11/20/2017 03:17:00 PM", "last_edited_date": "02/15/2018 03:51:00 PM", "longitude": 76.8294, "latitude": 10.0539, "index_right": 0, "GID_2": "IND.17.3_1", "GID_0": "IND", "COUNTRY": "India", "GID_1": "IND.17_1", "NAME_1": "Kerala", "NL_NAME_1": "NA", "NAME_2": "Idukki", "VARNAME_2": "Idikki", "NL_NAME_2": "NA", "TYPE_2": "District", "ENGTYPE_2": "District", "CC_2": "NA", "HASC_2": "IN.KL.ID" }, "geometry": { "type": "Point", "coordinates": [ 76.8294, 10.0539 ] } },
{ "type": "Feature", "properties": { "source_name": "ibnlive.in", "source_link": "http://ibnlive.in.com/news/crops-worth-rs-185-lakh-destroyed-in-idukki/156739-60-116.html", "event_id": 3567, "event_date": "06/02/2011 12:00:00 AM", "event_time": null, "event_title": "Peermade(Pīrmed), Idukki district, Kerala", "event_description": "Jun 05, 2011 at 12:04pm IST  KATTAPPANA: The heavy rain which has been lashing the district for the last several days has caused heavy damage to crops and property. According to the Agriculture Department sources, crops worth Rs 18.5 lakh in 150 hectares of land have been destroyed. The farmers in Thodupuzha, Peermade and Idukki taluk suffered a major loss as the crops got damaged in the rain. Three houses were fully damaged and over 17 houses were partially damaged in several parts of the district. Landslides were reported in Thodupuzha, Kulamavvu, Munnar and Elappara in the last two days. Power supply was disrupted in many parts of Idukki owing to the snapping of transmission lines. Traffic on many roads in and around the district was also disrupted owing to landslides. Landslide occurred over Past 2 days.", "location_description": "Peermade(Pīrmed), Idukki district, Kerala", "location_accuracy": "10km", "landslide_category": "landslide", "landslide_trigger": "downpour", "landslide_size": "medium", "landslide_setting": "unknown", "fatality_count": 0.0, "injury_count": null, "storm_name": null, "photo_link": null, "notes": null, "event_import_source": "glc", "event_import_id": 3567.0, "country_name": "India", "country_code": "IN", "admin_division_name": "Tamil Nadu", "admin_division_population": 47419.0, "gazeteer_closest_point": "Gudalur", "gazeteer_distance": 30.65143, "submitted_date": "04/01/2014 12:00:00 AM", "created_date": "11/20/2017 03:17:00 PM", "last_edited_date": "02/15/2018 03:51:00 PM", "longitude": 77.0198, "latitude": 9.5207, "index_right": 0, "GID_2": "IND.17.3_1", "GID_0": "IND", "COUNTRY": "India", "GID_1": "IND.17_1", "NAME_1": "Kerala", "NL_NAME_1": "NA", "NAME_2": "Idukki", "VARNAME_2": "Idikki", "NL_NAME_2": "NA", "TYPE_2": "District", "ENGTYPE_2": "District", "CC_2": "NA", "HASC_2": "IN.KL.ID" }, "geometry": { "type": "Point", "coordinates": [ 77.0198, 9.5207 ] } },
{ "type": "Feature", "properties": { "source_name": "asianetindia", "source_link": "http://www.asianetindia.com/news/landslide-reported-malappuram-houses-isolated_80321.html", "event_id": 1172, "event_date": "09/19/2009 12:00:00 AM", "event_time": null, "event_title": "Nilambur, Malappuram, Kerala State", "event_description": "Heavy rain in parts of Malappuaram has caused landslide near Nilambur. An Anganvadi building collapsed and several tribal colonies are reported to be isolated. Four houses were destroyed and there was extensive damage to agriculture.", "location_description": "Nilambur, Malappuram, Kerala State", "location_accuracy": "1km", "landslide_category": "landslide", "landslide_trigger": "downpour", "landslide_size": "medium", "landslide_setting": "unknown", "fatality_count": null, "injury_count": null, "storm_name": null, "photo_link": null, "notes": null, "event_import_source": "glc", "event_import_id": 1172.0, "country_name": "India", "country_code": "IN", "admin_division_name": "Kerala", "admin_division_population": 89201.0, "gazeteer_closest_point": "Manjeri", "gazeteer_distance": 20.24712, "submitted_date": "04/01/2014 12:00:00 AM", "created_date": "11/20/2017 03:17:00 PM", "last_edited_date": "02/15/2018 03:51:00 PM", "longitude": 76.2227, "latitude": 11.2695, "index_right": 0, "GID_2": "IND.17.3_1", "GID_0": "IND", "COUNTRY": "India", "GID_1": "IND.17_1", "NAME_1": "Kerala", "NL_NAME_1": "NA", "NAME_2": "Idukki", "VARNAME_2": "Idikki", "NL_NAME_2": "NA", "TYPE_2": "District", "ENGTYPE_2": "District", "CC_2": "NA", "HASC_2": "IN.KL.ID" }, "geometry": { "type": "Point", "coordinates": [ 76.2227, 11.2695 ] } },
{ "type": "Feature", "properties": { "source_name": "ibnlive.in", "source_link": "http://ibnlive.in.com/news/man-dies-in-landslide-wife-missing/194126-60-116.html", "event_id": 4019, "event_date": "10/17/2011 12:00:00 AM", "event_time": null, "event_title": "Vannappuram, Kerala,", "event_description": "One person was killed and another missing in a landslide that occurred at Vedikkavala, near Mullaringad, in Vannappuram grama panchayat, in Idukki district on Monday evening. The deceased has been identified as Thuruthel Thomas, 55. His wife Annamma, 54, is still missing. The body of Thomas was found a few distance away from his house, which was also washed away in the landslide. Police, Fire and Rescue Services team with the help of local people continued the search operations for Annamma late in the evening. The Fire and Rescue officials suspect she might have been trapped in a rocky area, which flooded in the landslip. The total damage of the landslide has not been known. The crops in the area were also completely swept away. However, heavy rain continued in almost every part of the district for the last two days and many places in the district are vulnerable to landslides.", "location_description": "Vannappuram, Kerala,", "location_accuracy": "5km", "landslide_category": "landslide", "landslide_trigger": "downpour", "landslide_size": "medium", "landslide_setting": "unknown", "fatality_count": 1.0, "injury_count": null, "storm_name": null, "photo_link": null, "notes": null, "event_import_source": "glc", "event_import_id": 4019.0, "country_name": "India", "country_code": "IN", "admin_division_name": "Kerala", "admin_division_population": 25436.0, "gazeteer_closest_point": "Kuttampuzha", "gazeteer_distance": 18.71719, "submitted_date": "04/01/2014 12:00:00 AM", "created_date": "11/20/2017 03:17:00 PM", "last_edited_date": "02/15/2018 03:51:00 PM", "longitude": 76.7898, "latitude": 9.9903, "index_right": 0, "GID_2": "IND.17.3_1", "GID_0": "IND", "COUNTRY": "India", "GID_1": "IND.17_1", "NAME_1": "Kerala", "NL_NAME_1": "NA", "NAME_2": "Idukki", "VARNAME_2": "Idikki", "NL_NAME_2": "NA", "TYPE_2": "District", "ENGTYPE_2": "District", "CC_2": "NA", "HASC_2": "IN.KL.ID" }, "geometry": { "type": "Point", "coordinates": [ 76.7898, 9.9903 ] } },
{ "type": "Feature", "properties": { "source_name": "ibnlive.in", "source_link": "http://ibnlive.in.com/news/landslides-shake-idukki-district/283297-60-116.html", "event_id": 4489, "event_date": "08/17/2012 12:00:00 AM", "event_time": null, "event_title": "Idukki-Kattappana Rd, kerala (Mid-point of rd)", "event_description": "A minor landslip was also reported on the Idukki-Kattappana Road. This created a minor traffic block, the Fire and Rescue Services sources said", "location_description": "Idukki-Kattappana Rd, kerala (Mid-point of rd)", "location_accuracy": "10km", "landslide_category": "landslide", "landslide_trigger": "downpour", "landslide_size": "medium", "landslide_setting": "unknown", "fatality_count": null, "injury_count": null, "storm_name": null, "photo_link": null, "notes": null, "event_import_source": "glc", "event_import_id": 4489.0, "country_name": "India", "country_code": "IN", "admin_division_name": "Tamil Nadu", "admin_division_population": 13209.0, "gazeteer_closest_point": "Kombai", "gazeteer_distance": 16.22171, "submitted_date": "04/01/2014 12:00:00 AM", "created_date": "11/20/2017 03:17:00 PM", "last_edited_date": "02/15/2018 03:51:00 PM", "longitude": 77.1498, "latitude": 9.8232, "index_right": 0, "GID_2": "IND.17.3_1", "GID_0": "IND", "COUNTRY": "India", "GID_1": "IND.17_1", "NAME_1": "Kerala", "NL_NAME_1": "NA", "NAME_2": "Idukki", "VARNAME_2": "Idikki", "NL_NAME_2": "NA", "TYPE_2": "District", "ENGTYPE_2": "District", "CC_2": "NA", "HASC_2": "IN.KL.ID" }, "geometry": { "type": "Point", "coordinates": [ 77.1498, 9.8232 ] } },
{ "type": "Feature", "properties": { "source_name": "ibnlive.in", "source_link": "http://ibnlive.in.com/news/crops-worth-rs-185-lakh-destroyed-in-idukki/156739-60-116.html", "event_id": 3565, "event_date": "06/02/2011 12:00:00 AM", "event_time": null, "event_title": "Idukki taluk, Kerala", "event_description": "Jun 05, 2011 at 12:04pm IST  KATTAPPANA: The heavy rain which has been lashing the district for the last several days has caused heavy damage to crops and property. According to the Agriculture Department sources, crops worth Rs 18.5 lakh in 150 hectares of land have been destroyed. The farmers in Thodupuzha, Peermade and Idukki taluk suffered a major loss as the crops got damaged in the rain. Three houses were fully damaged and over 17 houses were partially damaged in several parts of the district. Landslides were reported in Thodupuzha, Kulamavvu, Munnar and Elappara in the last two days. Power supply was disrupted in many parts of Idukki owing to the snapping of transmission lines. Traffic on many roads in and around the district was also disrupted owing to landslides. Landslide occurred over Past 2 days.", "location_description": "Idukki taluk, Kerala", "location_accuracy": "25km", "landslide_category": "landslide", "landslide_trigger": "downpour", "landslide_size": "medium", "landslide_setting": "unknown", "fatality_count": 0.0, "injury_count": null, "storm_name": null, "photo_link": null, "notes": null, "event_import_source": "glc", "event_import_id": 3565.0, "country_name": "India", "country_code": "IN", "admin_division_name": "Kerala", "admin_division_population": 11248.0, "gazeteer_closest_point": "Idukki", "gazeteer_distance": 3.5574, "submitted_date": "04/01/2014 12:00:00 AM", "created_date": "11/20/2017 03:17:00 PM", "last_edited_date": "02/15/2018 03:51:00 PM", "longitude": 76.9408, "latitude": 9.8306, "index_right": 0, "GID_2": "IND.17.3_1", "GID_0": "IND", "COUNTRY": "India", "GID_1": "IND.17_1", "NAME_1": "Kerala", "NL_NAME_1": "NA", "NAME_2": "Idukki", "VARNAME_2": "Idikki", "NL_NAME_2": "NA", "TYPE_2": "District", "ENGTYPE_2": "District", "CC_2": "NA", "HASC_2": "IN.KL.ID" }, "geometry": { "type": "Point", "coordinates": [ 76.9408, 9.8306 ] } },
{ "type": "Feature", "properties": { "source_name": "United Nations Development Programme - Relief Web", "source_link": "http://www.reliefweb.int/rw/RWB.NSF/db900SID/MCON-74J2QF?OpenDocument", "event_id": 101, "event_date": "06/25/2007 12:00:00 AM", "event_time": null, "event_title": "Wayanad", "event_description": "4 deaths reported b/w Wayanad and Kozhikode", "location_description": "Wayanad", "location_accuracy": "50km", "landslide_category": "landslide", "landslide_trigger": "monsoon", "landslide_size": "large", "landslide_setting": "unknown", "fatality_count": 4.0, "injury_count": null, "storm_name": null, "photo_link": null, "notes": null, "event_import_source": "glc", "event_import_id": 101.0, "country_name": "India", "country_code": "IN", "admin_division_name": "Kerala", "admin_division_population": 11651.0, "gazeteer_closest_point": "Panamaram", "gazeteer_distance": 3.87096, "submitted_date": "01/08/2016 11:23:00 PM", "created_date": "11/20/2017 03:17:00 PM", "last_edited_date": "02/15/2018 03:51:00 PM", "longitude": 76.074, "latitude": 11.7095, "index_right": 0, "GID_2": "IND.17.3_1", "GID_0": "IND", "COUNTRY": "India", "GID_1": "IND.17_1", "NAME_1": "Kerala", "NL_NAME_1": "NA", "NAME_2": "Idukki", "VARNAME_2": "Idikki", "NL_NAME_2": "NA", "TYPE_2": "District", "ENGTYPE_2": "District", "CC_2": "NA", "HASC_2": "IN.KL.ID" }, "geometry": { "type": "Point", "coordinates": [ 76.074, 11.7095 ] } },
{ "type": "Feature", "properties": { "source_name": "articles.timesofindia.indiatimes.com", "source_link": "http://articles.timesofindia.indiatimes.com/2013-08-10/thiruvananthapuram/41266154_1_monsoon-fury-memorandum-crossed-rs", "event_id": 5265, "event_date": "08/04/2013 12:00:00 AM", "event_time": null, "event_title": "Idukki, Kerala", "event_description": "The state government has sought a financial assistance of Rs 5,660 crore from the Union government to cope with monsoon-related calamities that claimed 175 lives, damaged 60,000 houses and ravaged over 50% of roads across the state. In a memorandum submitted to Prime Minister Manmohan Singh, chief minister Oommen Chandy said monsoon-related calamities were to be considered a national disaster and the state -- which had been fighting the ill- effects of severe drought till a couple of months ago -- was not in a position to handle the financial implications of rain devastation in Kerala. Monsoon rainfall in 2013 had exceeded the forecast, causing landslides and floods in several districts. Coastal erosion compounded the problem, damaging the state coastline significantly. Floods devastated several villages leading to evacuation and dislocation of a large number of families, the memorandum said. \"Out of the 1,51,652km of roads in the state, more than 50% have been severely damaged. Secto", "location_description": "Idukki, Kerala", "location_accuracy": "unknown", "landslide_category": "landslide", "landslide_trigger": "continuous_rain", "landslide_size": "very_large", "landslide_setting": "unknown", "fatality_count": 3.0, "injury_count": null, "storm_name": null, "photo_link": null, "notes": null, "event_import_source": "glc", "event_import_id": 5265.0, "country_name": "India", "country_code": "IN", "admin_division_name": "Kerala", "admin_division_population": 11248.0, "gazeteer_closest_point": "Idukki", "gazeteer_distance": 8.6519, "submitted_date": "04/01/2014 12:00:00 AM", "created_date": "11/20/2017 03:17:00 PM", "last_edited_date": "02/15/2018 03:51:00 PM", "longitude": 77.011, "latitude": 9.9147, "index_right": 0, "GID_2": "IND.17.3_1", "GID_0": "IND", "COUNTRY": "India", "GID_1": "IND.17_1", "NAME_1": "Kerala", "NL_NAME_1": "NA", "NAME_2": "Idukki", "VARNAME_2": "Idikki", "NL_NAME_2": "NA", "TYPE_2": "District", "ENGTYPE_2": "District", "CC_2": "NA", "HASC_2": "IN.KL.ID" }, "geometry": { "type": "Point", "coordinates": [ 77.011, 9.9147 ] } },
{ "type": "Feature", "properties": { "source_name": "dailypioneer.com", "source_link": "http://dailypioneer.com/nation/87976-rain-fury-returns-to-kerala.html", "event_id": 4484, "event_date": "08/17/2012 12:00:00 AM", "event_time": null, "event_title": "(Thalanadu - Teekoy hwy), Erattupetta, Kottayam (Thalanadu - Teekoy hwy)", "event_description": "Monsoon fury returned to Kerala on Friday after sowing devastation in the State’s northern region 10 days ago. Four persons died and two were reported missing in a landslide near Kothamangalam in Ernakulam district on Friday as rain-related tragedies kept flowing in from various locations in the central and eastern regions. Thanikkuzhi Narayanan died of cardiac arrest from the shock of seeing a massive landslide at Block 4, Kadavoor in Paingottoor Panchayat near Kothamangalam. The body of Vattakkunnel Ouseph was found among the debris brought by the landslide which occurred at about 3.30 pm Friday.At least seven houses were smashed and washed away in the landslide. “I heard a big sound which I can compare to nothing. Then the trees, rocks and soil just tumbled down off the hilltop swallowing everything on the way,” said Varkey, a local resident of Kadavoor. “Torrential rains have been lashing this area since Thursday morning,” he added.One person rescued the mud accumulated from the la", "location_description": "(Thalanadu - Teekoy hwy), Erattupetta, Kottayam (Thalanadu - Teekoy hwy)", "location_accuracy": "1km", "landslide_category": "landslide", "landslide_trigger": "downpour", "landslide_size": "medium", "landslide_setting": "unknown", "fatality_count": null, "injury_count": null, "storm_name": null, "photo_link": null, "notes": null, "event_import_source": "glc", "event_import_id": 4484.0, "country_name": "India", "country_code": "IN", "admin_division_name": "Kerala", "admin_division_population": 33408.0, "gazeteer_closest_point": "Erāttupetta", "gazeteer_distance": 3.67394, "submitted_date": "04/01/2014 12:00:00 AM", "created_date": "11/20/2017 03:17:00 PM", "last_edited_date": "02/15/2018 03:51:00 PM", "longitude": 76.8168, "latitude": 9.6991, "index_right": 0, "GID_2": "IND.17.3_1", "GID_0": "IND", "COUNTRY": "India", "GID_1": "IND.17_1", "NAME_1": "Kerala", "NL_NAME_1": "NA", "NAME_2": "Idukki", "VARNAME_2": "Idikki", "NL_NAME_2": "NA", "TYPE_2": "District", "ENGTYPE_2": "District", "CC_2": "NA", "HASC_2": "IN.KL.ID" }, "geometry": { "type": "Point", "coordinates": [ 76.8168, 9.6991 ] } },
{ "type": "Feature", "properties": { "source_name": "ibnlive.in", "source_link": "http://ibnlive.in.com/news/landslides-shake-idukki-district/283297-60-116.html", "event_id": 4488, "event_date": "08/17/2012 12:00:00 AM", "event_time": null, "event_title": "Pullupara, Perunanthanam, kerala", "event_description": "Four persons were injured on Friday in a landslide at Pullupara, Peruvanthanam, owing to heavy rains that occurred in various parts of the district.They are Saji, 48, Narayana Pillai, 60, Tony, 38, and Benny Thuruthipalli, 38. Sources in the Fire and Rescue Services Department said that the landslide had struck the tea-shop where they were having tea.The shop is situated by the side of the KK Road.They were almost completely buried in the landslip, but the timely intervention of the local people saved their lives. They were rushed to a private hospital in Mundakayam", "location_description": "Pullupara, Perunanthanam, kerala", "location_accuracy": "5km", "landslide_category": "landslide", "landslide_trigger": "downpour", "landslide_size": "medium", "landslide_setting": "unknown", "fatality_count": null, "injury_count": null, "storm_name": null, "photo_link": null, "notes": null, "event_import_source": "glc", "event_import_id": 4488.0, "country_name": "India", "country_code": "IN", "admin_division_name": "Kerala", "admin_division_population": 33408.0, "gazeteer_closest_point": "Erāttupetta", "gazeteer_distance": 22.89633, "submitted_date": "04/01/2014 12:00:00 AM", "created_date": "11/20/2017 03:17:00 PM", "last_edited_date": "02/15/2018 03:51:00 PM", "longitude": 76.9299, "latitude": 9.5527, "index_right": 0, "GID_2": "IND.17.3_1", "GID_0": "IND", "COUNTRY": "India", "GID_1": "IND.17_1", "NAME_1": "Kerala", "NL_NAME_1": "NA", "NAME_2": "Idukki", "VARNAME_2": "Idikki", "NL_NAME_2": "NA", "TYPE_2": "District", "ENGTYPE_2": "District", "CC_2": "NA", "HASC_2": "IN.KL.ID" }, "geometry": { "type": "Point", "coordinates": [ 76.9299, 9.5527 ] } },
{ "type": "Feature", "properties": { "source_name": "hisz.rsoe", "source_link": "http://hisz.rsoe.hu/alertmap/site/?pageid=event_update_read&edis_id=FF-20120804-36049-IND&uid=12837", "event_id": 4468, "event_date": "07/22/2012 12:00:00 AM", "event_time": null, "event_title": "Pulloorampara, Kerala", "event_description": "even people, including five members of a family, were reportedly missing in landslides at various parts of Kannur and Kozhikode districts on Monday evening. The five-member family of Biju of Thundathil house was reportedly washed away at Aanakampoyil at Pulloorampara. There were unconfirmed reports that the body of Biju’s three-and-a-half-year-old son, Kuttan, had been recovered. Two people, identified as Gopalan and Varkey, were reported missing in the landslide at Kodencherry in the district. Rescue operations were going on till late in the night. Heavy rains accompanied by landslides wreaked havoc in Iritty and other high range regions of Kannur district on Monday. Landslides threw life out of gear in Vaniyambara in Ayyankunnu panchayat and in Pulloorampara near Thiruvambadi in Kozhikode. The landslides, besides causing heavy damage to several houses, crops and business establishments, also unleashed flash floods in Vaniyambara and Vallithode. A 10-year-old bridge at Odichikunnu was", "location_description": "Pulloorampara, Kerala", "location_accuracy": "5km", "landslide_category": "landslide", "landslide_trigger": "downpour", "landslide_size": "medium", "landslide_setting": "unknown", "fatality_count": null, "injury_count": null, "storm_name": null, "photo_link": null, "notes": null, "event_import_source": "glc", "event_import_id": 4468.0, "country_name": "India", "country_code": "IN", "admin_division_name": "Kerala", "admin_division_population": 28313.0, "gazeteer_closest_point": "Mavoor", "gazeteer_distance": 20.20958, "submitted_date": "04/01/2014 12:00:00 AM", "created_date": "11/20/2017 03:17:00 PM", "last_edited_date": "02/15/2018 03:51:00 PM", "longitude": 76.0376, "latitude": 11.405, "index_right": 0, "GID_2": "IND.17.3_1", "GID_0": "IND", "COUNTRY": "India", "GID_1": "IND.17_1", "NAME_1": "Kerala", "NL_NAME_1": "NA", "NAME_2": "Idukki", "VARNAME_2": "Idikki", "NL_NAME_2": "NA", "TYPE_2": "District", "ENGTYPE_2": "District", "CC_2": "NA", "HASC_2": "IN.KL.ID" }, "geometry": { "type": "Point", "coordinates": [ 76.0376, 11.405 ] } },
{ "type": "Feature", "properties": { "source_name": "www.business-standard.com", "source_link": "http://www.business-standard.com/article/current-affairs/mullaperiyar-dam-near-to-full-landslides-at-naliyani-villanchira-113080700331_1.html", "event_id": 5292, "event_date": "08/07/2013 06:00:00 PM", "event_time": null, "event_title": "Naliyani, Near Thodupuzha Town", "event_description": "Meanwhile, fresh landslides were reported at two locations at Naliyani, near Thodupuzha town, and at Villanchira, near Neryamangalam. There was no casualty.", "location_description": "Naliyani, Near Thodupuzha Town", "location_accuracy": "5km", "landslide_category": "landslide", "landslide_trigger": "monsoon", "landslide_size": "medium", "landslide_setting": "unknown", "fatality_count": 0.0, "injury_count": null, "storm_name": null, "photo_link": null, "notes": null, "event_import_source": "glc", "event_import_id": 5292.0, "country_name": "India", "country_code": "IN", "admin_division_name": "Kerala", "admin_division_population": 11248.0, "gazeteer_closest_point": "Idukki", "gazeteer_distance": 11.1554, "submitted_date": "04/01/2014 12:00:00 AM", "created_date": "11/20/2017 03:17:00 PM", "last_edited_date": "02/15/2018 03:51:00 PM", "longitude": 76.8661, "latitude": 9.835, "index_right": 0, "GID_2": "IND.17.3_1", "GID_0": "IND", "COUNTRY": "India", "GID_1": "IND.17_1", "NAME_1": "Kerala", "NL_NAME_1": "NA", "NAME_2": "Idukki", "VARNAME_2": "Idikki", "NL_NAME_2": "NA", "TYPE_2": "District", "ENGTYPE_2": "District", "CC_2": "NA", "HASC_2": "IN.KL.ID" }, "geometry": { "type": "Point", "coordinates": [ 76.8661, 9.835 ] } },
{ "type": "Feature", "properties": { "source_name": "www.deccanchronicle.com", "source_link": "http://www.deccanchronicle.com/130806/news-current-affairs/article/special-landslides-rain-havoc-kerala", "event_id": 5280, "event_date": "08/05/2013 08:00:00 AM", "event_time": null, "event_title": "Thadiyambadu Near Painavu, Kerala", "event_description": "At Thadiyambadu near Painavu, two sisters, Josma (16) and Josmy (13), died when mud slipped from a hillock onto their house early on Monday morning. The two were fast asleep in their room. They were students of St George High School, Vazhathope. Their parents, Joseph and Beena, escaped with minor injuries.", "location_description": "Thadiyambadu Near Painavu, Kerala", "location_accuracy": "1km", "landslide_category": "landslide", "landslide_trigger": "monsoon", "landslide_size": "medium", "landslide_setting": "unknown", "fatality_count": 2.0, "injury_count": 2.0, "storm_name": null, "photo_link": null, "notes": null, "event_import_source": "glc", "event_import_id": 5280.0, "country_name": "India", "country_code": "IN", "admin_division_name": "Kerala", "admin_division_population": 11248.0, "gazeteer_closest_point": "Idukki", "gazeteer_distance": 3.2126, "submitted_date": "04/01/2014 12:00:00 AM", "created_date": "11/20/2017 03:17:00 PM", "last_edited_date": "02/15/2018 03:51:00 PM", "longitude": 76.9683, "latitude": 9.879, "index_right": 0, "GID_2": "IND.17.3_1", "GID_0": "IND", "COUNTRY": "India", "GID_1": "IND.17_1", "NAME_1": "Kerala", "NL_NAME_1": "NA", "NAME_2": "Idukki", "VARNAME_2": "Idikki", "NL_NAME_2": "NA", "TYPE_2": "District", "ENGTYPE_2": "District", "CC_2": "NA", "HASC_2": "IN.KL.ID" }, "geometry": { "type": "Point", "coordinates": [ 76.9683, 9.879 ] } },
{ "type": "Feature", "properties": { "source_name": "Times Of India", "source_link": "http://timesofindia.indiatimes.com/city/kozhikode/Youth-killed-in-landslide-in-Idukki/articleshow/52757398.cms", "event_id": 9141, "event_date": "06/15/2016 09:00:00 AM", "event_time": null, "event_title": "Vazhavara, Idukki, Kerala, India", "event_description": "Former SFI Idukki district president Joby John was killed and his mother was seriously injured when mounds of earth and rocks fell on their home following heavy rain at Vazhavara early on Wednesday, aid the police.   The incident occurred around 6am when Joby and his father Johnny, mother Chinnamma were sleeping in their home.   There was a landslide50 feet above their home on Wednesday. Joby and his mother were trapped underneath the rubble and his father managed to escape somehow. He alerted neighbours and they rescued his wife. She is recuperating at a private hospital in Kattappana.   They couldn't extricate Joby and finally the fire force rescued him and he died. His funeral was held at the St May's church after autopsy. Joby had served as the state committee member, DYFI district block president and was a member of the CPM local committee here.", "location_description": "Vazhavara, Idukki, Kerala, India", "location_accuracy": "1km", "landslide_category": "rock_fall", "landslide_trigger": "downpour", "landslide_size": "medium", "landslide_setting": "unknown", "fatality_count": 2.0, "injury_count": 1.0, "storm_name": null, "photo_link": null, "notes": null, "event_import_source": "glc", "event_import_id": 9141.0, "country_name": "India", "country_code": "IN", "admin_division_name": "Kerala", "admin_division_population": 11248.0, "gazeteer_closest_point": "Idukki", "gazeteer_distance": 11.91942, "submitted_date": "07/22/2016 08:46:00 PM", "created_date": "11/20/2017 03:17:00 PM", "last_edited_date": "02/15/2018 03:51:00 PM", "longitude": 77.0611, "latitude": 9.7967, "index_right": 0, "GID_2": "IND.17.3_1", "GID_0": "IND", "COUNTRY": "India", "GID_1": "IND.17_1", "NAME_1": "Kerala", "NL_NAME_1": "NA", "NAME_2": "Idukki", "VARNAME_2": "Idikki", "NL_NAME_2": "NA", "TYPE_2": "District", "ENGTYPE_2": "District", "CC_2": "NA", "HASC_2": "IN.KL.ID" }, "geometry": { "type": "Point", "coordinates": [ 77.0611, 9.7967 ] } },
{ "type": "Feature", "properties": { "source_name": "Hindu", "source_link": "http://www.thehindu.com/news/states/kerala/article2333186.ece", "event_id": 3885, "event_date": "08/06/2011 09:00:00 AM", "event_time": null, "event_title": "Kanamala in Erumeli Panchayat", "event_description": "Massive loss to crop and property have been reported from the high ranges areas of the district bordering neighbouring Idukki district in the heavy rains that lashed the area during the past 24 hours.  Major landslides have been reported from Pallippady in Koruthode panchayat, Cholathadam in Poonjar Thekkekkara panchayat and Kanamala in Erumeli Panchayat, during early hours of Sunday, authorities said. Parathode panchayat in near Kanjirappally witnessed widespread landslips. Losses to houses have also been reported from Koruthode panchayat.  Most of the affected area falls under Poonjar and Pala assembly segments. Speaking to The Hindu, P.C. George MLA, who represents Poonjar said, governmental machinery has already been pressed in for relief operations. The Erattupetta-Pala Road and Pala-Ponkunnam Road remained inundated in many areas disrupting vehicular traffic. ", "location_description": "Kanamala in Erumeli Panchayat", "location_accuracy": "5km", "landslide_category": "landslide", "landslide_trigger": "downpour", "landslide_size": "medium", "landslide_setting": "unknown", "fatality_count": null, "injury_count": null, "storm_name": null, "photo_link": null, "notes": null, "event_import_source": "glc", "event_import_id": 3885.0, "country_name": "India", "country_code": "IN", "admin_division_name": "Kerala", "admin_division_population": 38285.0, "gazeteer_closest_point": "Pathanāmthitta", "gazeteer_distance": 24.22781, "submitted_date": "04/01/2014 12:00:00 AM", "created_date": "11/20/2017 03:17:00 PM", "last_edited_date": "02/15/2018 03:51:00 PM", "longitude": 76.8696375, "latitude": 9.497393176, "index_right": 0, "GID_2": "IND.17.3_1", "GID_0": "IND", "COUNTRY": "India", "GID_1": "IND.17_1", "NAME_1": "Kerala", "NL_NAME_1": "NA", "NAME_2": "Idukki", "VARNAME_2": "Idikki", "NL_NAME_2": "NA", "TYPE_2": "District", "ENGTYPE_2": "District", "CC_2": "NA", "HASC_2": "IN.KL.ID" }, "geometry": { "type": "Point", "coordinates": [ 76.8696375, 9.497393176 ] } },
{ "type": "Feature", "properties": { "source_name": "ibnlive.in", "source_link": "http://ibnlive.in.com/news/crops-worth-rs-185-lakh-destroyed-in-idukki/156739-60-116.html", "event_id": 3566, "event_date": "06/02/2011 12:00:00 AM", "event_time": null, "event_title": "Munnar, Idukki district, Kerala", "event_description": "Jun 05, 2011 at 12:04pm IST  KATTAPPANA: The heavy rain which has been lashing the district for the last several days has caused heavy damage to crops and property. According to the Agriculture Department sources, crops worth Rs 18.5 lakh in 150 hectares of land have been destroyed. The farmers in Thodupuzha, Peermade and Idukki taluk suffered a major loss as the crops got damaged in the rain. Three houses were fully damaged and over 17 houses were partially damaged in several parts of the district. Landslides were reported in Thodupuzha, Kulamavvu, Munnar and Elappara in the last two days. Power supply was disrupted in many parts of Idukki owing to the snapping of transmission lines. Traffic on many roads in and around the district was also disrupted owing to landslides. Landslide occurred over Past 2 days.", "location_description": "Munnar, Idukki district, Kerala", "location_accuracy": "10km", "landslide_category": "landslide", "landslide_trigger": "downpour", "landslide_size": "medium", "landslide_setting": "unknown", "fatality_count": 0.0, "injury_count": null, "storm_name": null, "photo_link": null, "notes": null, "event_import_source": "glc", "event_import_id": 3566.0, "country_name": "India", "country_code": "IN", "admin_division_name": "Kerala", "admin_division_population": 68000.0, "gazeteer_closest_point": "Munnar", "gazeteer_distance": 0.93276, "submitted_date": "04/01/2014 12:00:00 AM", "created_date": "11/20/2017 03:17:00 PM", "last_edited_date": "02/15/2018 03:51:00 PM", "longitude": 77.0696, "latitude": 10.0838, "index_right": 0, "GID_2": "IND.17.3_1", "GID_0": "IND", "COUNTRY": "India", "GID_1": "IND.17_1", "NAME_1": "Kerala", "NL_NAME_1": "NA", "NAME_2": "Idukki", "VARNAME_2": "Idikki", "NL_NAME_2": "NA", "TYPE_2": "District", "ENGTYPE_2": "District", "CC_2": "NA", "HASC_2": "IN.KL.ID" }, "geometry": { "type": "Point", "coordinates": [ 77.0696, 10.0838 ] } }
]
}
