{
"type": "FeatureCollection",
"name": "kerala_subset_boundary",
"crs": { "type": "name", "properties": { "name": "urn:ogc:def:crs:OGC:1.3:CRS84" } },
"features": [
{ "type": "Feature", "properties": { "GID_2": "IND.17.3_1", "GID_0": "IND", "COUNTRY": "India", "GID_1": "IND.17_1", "NAME_1": "Kerala", "NL_NAME_1": "NA", "NAME_2": "Idukki", "VARNAME_2": "Idikki", "NL_NAME_2": "NA", "TYPE_2": "District", "ENGTYPE_2": "District", "CC_2": "NA", "HASC_2": "IN.KL.ID" }, "geometry": { "type": "MultiPolygon", "coordinates": [ [ [ [ 76.3701, 9.7565 ], [ 76.3704, 9.7582 ], [ 76.3718, 9.7579 ], [ 76.3732, 9.7524 ], [ 76.3729, 9.7513 ], [ 76.3701, 9.7565 ] ] ], [ [ [ 76.04, 10.7965 ], [ 76.0388, 10.7945 ], [ 76.0416, 10.7906 ], [ 76.0407, 10.7874 ], [ 76.036, 10.7881 ], [ 76.035, 10.7867 ], [ 76.0318, 10.7554 ], [ 76.0339, 10.7545 ], [ 76.0324, 10.7467 ], [ 76.038, 10.7469 ], [ 76.0401, 10.7364 ], [ 76.051, 10.7357 ], [ 76.0555, 10.7383 ], [ 76.0623, 10.7246 ], [ 76.0597, 10.7188 ], [ 76.0601, 10.7155 ], [ 76.0547, 10.7137 ], [ 76.047, 10.7065 ], [ 76.0447, 10.6973 ], [ 76.0423, 10.6962 ], [ 76.041, 10.6981 ], [ 76.0382, 10.6961 ], [ 76.0311, 10.6982 ], [ 76.0261, 10.6919 ], [ 76.0098, 10.6866 ], [ 76.0019, 10.6806 ], [ 75.9963, 10.6823 ], [ 75.9953, 10.6849 ], [ 75.9916, 10.6869 ], [ 75.9874, 10.687 ], [ 75.9867, 10.6896 ], [ 75.9851, 10.6878 ], [ 75.9757, 10.6867 ], [ 75.9751, 10.6796 ], [ 75.9724, 10.6803 ], [ 75.972, 10.6855 ], [ 75.9656, 10.6856 ], [ 75.9643, 10.6876 ], [ 75.9568, 10.684 ], [ 75.9499, 10.7035 ], [ 75.9357, 10.7307 ], [ 75.9182, 10.7757 ], [ 75.9101, 10.7924 ], [ 75.8799, 10.9315 ], [ 75.8576, 11.0143 ], [ 75.8576, 11.0185 ], [ 75.861, 11.0176 ], [ 75.8629, 11.0054 ], [ 75.8665, 11.0054 ], [ 75.8677, 11.0093 ], [ 75.8654, 11.0135 ], [ 75.8665, 11.0085 ], [ 75.8643, 11.0065 ], [ 75.8613, 11.0187 ], [ 75.8585, 11.0215 ], [ 75.856, 11.0207 ], [ 75.8463, 11.0638 ], [ 75.8326, 11.1096 ], [ 75.8296, 11.1171 ], [ 75.8251, 11.1229 ], [ 75.8293, 11.1224 ], [ 75.8326, 11.126 ], [ 75.8357, 11.1265 ], [ 75.8412, 11.1385 ], [ 75.8479, 11.1426 ], [ 75.8526, 11.1413 ], [ 75.8579, 11.1368 ], [ 75.8576, 11.1318 ], [ 75.8613, 11.1296 ], [ 75.859, 11.1318 ], [ 75.8585, 11.1385 ], [ 75.8512, 11.144 ], [ 75.8496, 11.1432 ], [ 75.8451, 11.1438 ], [ 75.839, 11.1365 ], [ 75.8343, 11.1349 ], [ 75.8321, 11.131 ], [ 75.8285, 11.1307 ], [ 75.8249, 11.1254 ], [ 75.8149, 11.1479 ], [ 75.8035, 11.1557 ], [ 75.8037, 11.1576 ], [ 75.8015, 11.1593 ], [ 75.8051, 11.1621 ], [ 75.809, 11.1626 ], [ 75.8107, 11.1571 ], [ 75.816, 11.1599 ], [ 75.8224, 11.156 ], [ 75.8257, 11.1588 ], [ 75.8288, 11.1582 ], [ 75.8268, 11.1604 ], [ 75.8274, 11.1621 ], [ 75.8246, 11.1615 ], [ 75.8221, 11.1568 ], [ 75.8185, 11.1618 ], [ 75.8124, 11.1593 ], [ 75.8124, 11.1624 ], [ 75.8162, 11.1715 ], [ 75.8201, 11.174 ], [ 75.8215, 11.1776 ], [ 75.8288, 11.179 ], [ 75.829, 11.1807 ], [ 75.8201, 11.1821 ], [ 75.814, 11.1793 ], [ 75.809, 11.1662 ], [ 75.8021, 11.1626 ], [ 75.7954, 11.1849 ], [ 75.7735, 11.2404 ], [ 75.7676, 11.2632 ], [ 75.7637, 11.2713 ], [ 75.7637, 11.276 ], [ 75.7604, 11.2804 ], [ 75.7582, 11.2865 ], [ 75.759, 11.2879 ], [ 75.7551, 11.2946 ], [ 75.7476, 11.3185 ], [ 75.746, 11.3207 ], [ 75.7418, 11.3207 ], [ 75.7374, 11.324 ], [ 75.736, 11.331 ], [ 75.7337, 11.334 ], [ 75.7363, 11.3407 ], [ 75.7351, 11.344 ], [ 75.7374, 11.3476 ], [ 75.7357, 11.3532 ], [ 75.7343, 11.3549 ], [ 75.7335, 11.3529 ], [ 75.7324, 11.3535 ], [ 75.7151, 11.3929 ], [ 75.7129, 11.3935 ], [ 75.7104, 11.401 ], [ 75.7046, 11.409 ], [ 75.7012, 11.4193 ], [ 75.6826, 11.4482 ], [ 75.6813, 11.4499 ], [ 75.6754, 11.4501 ], [ 75.6651, 11.4613 ], [ 75.6604, 11.4621 ], [ 75.6551, 11.466 ], [ 75.6457, 11.4679 ], [ 75.6371, 11.4649 ], [ 75.6371, 11.4613 ], [ 75.6343, 11.4615 ], [ 75.6265, 11.4732 ], [ 75.6201, 11.4746 ], [ 75.6174, 11.4771 ], [ 75.619, 11.4807 ], [ 75.6179, 11.4888 ], [ 75.5904, 11.561 ], [ 75.5907, 11.5688 ], [ 75.5907, 11.5646 ], [ 75.5924, 11.5638 ], [ 75.5954, 11.5563 ], [ 75.5957, 11.5507 ], [ 75.5976, 11.5501 ], [ 75.5985, 11.5454 ], [ 75.5999, 11.5443 ], [ 75.5963, 11.5615 ], [ 75.5938, 11.5632 ], [ 75.5924, 11.5671 ], [ 75.5946, 11.571 ], [ 75.5899, 11.5738 ], [ 75.589, 11.5821 ], [ 75.5857, 11.5863 ], [ 75.5899, 11.5701 ], [ 75.5882, 11.569 ], [ 75.564, 11.6346 ], [ 75.5424, 11.6818 ], [ 75.5299, 11.7026 ], [ 75.5325, 11.7043 ], [ 75.536, 11.704 ], [ 75.54, 11.6981 ], [ 75.552, 11.696 ], [ 75.5583, 11.6862 ], [ 75.56, 11.6814 ], [ 75.5588, 11.6775 ], [ 75.5599, 11.6745 ], [ 75.5639, 11.6724 ], [ 75.5663, 11.6687 ], [ 75.5695, 11.6692 ], [ 75.5772, 11.6736 ], [ 75.5846, 11.682 ], [ 75.5941, 11.6809 ], [ 75.5988, 11.6821 ], [ 75.6006, 11.6893 ], [ 75.5906, 11.6953 ], [ 75.5904, 11.7024 ], [ 75.587, 11.7082 ], [ 75.5881, 11.7096 ], [ 75.5949, 11.7091 ], [ 75.598, 11.7115 ], [ 75.6021, 11.7104 ], [ 75.6058, 11.7118 ], [ 75.6203, 11.7236 ], [ 75.6237, 11.7307 ], [ 75.6313, 11.73 ], [ 75.6538, 11.7486 ], [ 75.6636, 11.7528 ], [ 75.6665, 11.7615 ], [ 75.6814, 11.7707 ], [ 75.6869, 11.7898 ], [ 75.6898, 11.792 ], [ 75.6932, 11.7929 ], [ 75.7022, 11.79 ], [ 75.7123, 11.7891 ], [ 75.7197, 11.7842 ], [ 75.7236, 11.7772 ], [ 75.7284, 11.7739 ], [ 75.7334, 11.7752 ], [ 75.7354, 11.7805 ], [ 75.7442, 11.7782 ], [ 75.7501, 11.7788 ], [ 75.7509, 11.7817 ], [ 75.7492, 11.7862 ], [ 75.7456, 11.7895 ], [ 75.7448, 11.7954 ], [ 75.7486, 11.7976 ], [ 75.7676, 11.7953 ], [ 75.772619109998075, 11.792663378925063 ], [ 75.7778, 11.8021 ], [ 75.7917, 11.8085 ], [ 75.7931, 11.8178 ], [ 75.7917, 11.8227 ], [ 75.7849, 11.8296 ], [ 75.7858, 11.835 ], [ 75.7872, 11.8398 ], [ 75.7954, 11.84 ], [ 75.7983, 11.8419 ], [ 75.8026, 11.8488 ], [ 75.8119, 11.8492 ], [ 75.8195, 11.8447 ], [ 75.8245, 11.8437 ], [ 75.8288, 11.8438 ], [ 75.8364, 11.8484 ], [ 75.8397, 11.8482 ], [ 75.8452, 11.8431 ], [ 75.851, 11.8411 ], [ 75.8586, 11.8427 ], [ 75.8623, 11.8397 ], [ 75.8703, 11.8407 ], [ 75.8753, 11.8376 ], [ 75.8822, 11.8381 ], [ 75.8866, 11.8358 ], [ 75.8958, 11.8349 ], [ 75.9156, 11.839 ], [ 75.919, 11.8335 ], [ 75.9212, 11.8338 ], [ 75.9231, 11.8371 ], [ 75.9224, 11.8457 ], [ 75.925, 11.8546 ], [ 75.908, 11.8668 ], [ 75.9237, 11.8735 ], [ 75.9302, 11.8818 ], [ 75.9316, 11.8877 ], [ 75.929, 11.9036 ], [ 75.9194, 11.9147 ], [ 75.92, 11.9206 ], [ 75.9252, 11.9329 ], [ 75.9311, 11.9311 ], [ 75.9484, 11.9339 ], [ 75.9589, 11.9286 ], [ 75.9726, 11.9276 ], [ 75.9763, 11.925 ], [ 75.9982, 11.9236 ], [ 76.004, 11.9319 ], [ 76.0184, 11.935 ], [ 76.0296, 11.9328 ], [ 76.0385, 11.939 ], [ 76.0419, 11.9433 ], [ 76.0478, 11.9445 ], [ 76.0728, 11.9613 ], [ 76.0913, 11.9616 ], [ 76.1079, 11.9706 ], [ 76.1074, 11.8763 ], [ 76.1093, 11.8586 ], [ 76.1081, 11.8512 ], [ 76.1165, 11.843 ], [ 76.1256, 11.8448 ], [ 76.139, 11.8571 ], [ 76.1494, 11.861 ], [ 76.1626, 11.86 ], [ 76.184, 11.8638 ], [ 76.1961, 11.8555 ], [ 76.2009, 11.8541 ], [ 76.2034, 11.8491 ], [ 76.2072, 11.8318 ], [ 76.2055, 11.8196 ], [ 76.212, 11.8143 ], [ 76.2143, 11.8042 ], [ 76.2185, 11.8 ], [ 76.2321, 11.7965 ], [ 76.2444, 11.7953 ], [ 76.2531, 11.7998 ], [ 76.2654, 11.8004 ], [ 76.272, 11.8035 ], [ 76.2751, 11.8008 ], [ 76.2837, 11.7849 ], [ 76.3, 11.7762 ], [ 76.3105, 11.7439 ], [ 76.3243, 11.7387 ], [ 76.335, 11.7306 ], [ 76.3463, 11.7305 ], [ 76.356, 11.7399 ], [ 76.3723, 11.7362 ], [ 76.3838, 11.745 ], [ 76.3907, 11.7429 ], [ 76.4044, 11.7499 ], [ 76.4077, 11.7533 ], [ 76.4108, 11.7465 ], [ 76.4066, 11.7406 ], [ 76.4056, 11.7334 ], [ 76.412, 11.7343 ], [ 76.4173, 11.7259 ], [ 76.419, 11.7215 ], [ 76.4179, 11.7136 ], [ 76.4111, 11.71 ], [ 76.4087, 11.7041 ], [ 76.4063, 11.7036 ], [ 76.4031, 11.7068 ], [ 76.3964, 11.7011 ], [ 76.4029, 11.6995 ], [ 76.4022, 11.6831 ], [ 76.4102, 11.6646 ], [ 76.4176, 11.6634 ], [ 76.4235, 11.6593 ], [ 76.4277, 11.6475 ], [ 76.4346, 11.6416 ], [ 76.4356, 11.6377 ], [ 76.4342, 11.6335 ], [ 76.4307, 11.6296 ], [ 76.4259, 11.629 ], [ 76.4248, 11.6233 ], [ 76.4213, 11.6251 ], [ 76.3962, 11.6253 ], [ 76.3801, 11.6224 ], [ 76.3767, 11.6147 ], [ 76.3768, 11.6046 ], [ 76.3711, 11.6007 ], [ 76.3707, 11.5935 ], [ 76.3501, 11.5827 ], [ 76.3356, 11.5783 ], [ 76.3335, 11.5807 ], [ 76.3334, 11.5851 ], [ 76.3286, 11.5886 ], [ 76.3111, 11.5775 ], [ 76.3092, 11.5696 ], [ 76.3052, 11.5704 ], [ 76.2979, 11.5643 ], [ 76.2938, 11.565 ], [ 76.2906, 11.5806 ], [ 76.2859, 11.583 ], [ 76.2779, 11.5835 ], [ 76.276, 11.59 ], [ 76.271, 11.5929 ], [ 76.2667, 11.5893 ], [ 76.2597, 11.5869 ], [ 76.2257, 11.5644 ], [ 76.2269, 11.5597 ], [ 76.2345, 11.5465 ], [ 76.2383, 11.5334 ], [ 76.2425, 11.5288 ], [ 76.243, 11.5242 ], [ 76.2396, 11.5209 ], [ 76.2332, 11.5187 ], [ 76.2415, 11.5048 ], [ 76.2448, 11.4943 ], [ 76.2409, 11.4752 ], [ 76.2401, 11.4596 ], [ 76.2579, 11.4732 ], [ 76.2661, 11.4687 ], [ 76.2781, 11.4745 ], [ 76.2877, 11.466 ], [ 76.2841, 11.4624 ], [ 76.289, 11.4563 ], [ 76.298, 11.4589 ], [ 76.3209, 11.4447 ], [ 76.3337, 11.4587 ], [ 76.3391, 11.4542 ], [ 76.3615, 11.448 ], [ 76.3906, 11.428 ], [ 76.4104, 11.4336 ], [ 76.4082, 11.4148 ], [ 76.4184, 11.4053 ], [ 76.4393, 11.3907 ], [ 76.4484, 11.3814 ], [ 76.4729, 11.3753 ], [ 76.5101, 11.3612 ], [ 76.5095, 11.3537 ], [ 76.5067, 11.3477 ], [ 76.5095, 11.3466 ], [ 76.5164, 11.349 ], [ 76.5299, 11.3477 ], [ 76.5382, 11.3516 ], [ 76.5408, 11.327 ], [ 76.5398, 11.321 ], [ 76.5305, 11.3096 ], [ 76.5285, 11.3034 ], [ 76.5305, 11.2957 ], [ 76.5402, 11.2923 ], [ 76.5219, 11.2812 ], [ 76.5159, 11.2725 ], [ 76.5131, 11.2647 ], [ 76.5135, 11.262 ], [ 76.4881, 11.252 ], [ 76.4464, 11.2305 ], [ 76.4429, 11.2001 ], [ 76.438, 11.1945 ], [ 76.4322, 11.1959 ], [ 76.4264, 11.1937 ], [ 76.4125, 11.1981 ], [ 76.4025, 11.1982 ], [ 76.4029, 11.1901 ], [ 76.3978, 11.1759 ], [ 76.4075, 11.1633 ], [ 76.4036, 11.1461 ], [ 76.4087, 11.1336 ], [ 76.405, 11.1256 ], [ 76.4031, 11.1121 ], [ 76.404, 11.1073 ], [ 76.3964, 11.1071 ], [ 76.3871, 11.1016 ], [ 76.383, 11.0949 ], [ 76.3733, 11.0925 ], [ 76.3684, 11.0896 ], [ 76.3546, 11.0901 ], [ 76.3434, 11.0856 ], [ 76.3263, 11.0648 ], [ 76.3262, 11.0585 ], [ 76.3281, 11.0544 ], [ 76.325, 11.0505 ], [ 76.3258, 11.0477 ], [ 76.3155, 11.0414 ], [ 76.3051, 11.0444 ], [ 76.3013, 11.04 ], [ 76.2885, 11.0423 ], [ 76.2873, 11.0363 ], [ 76.2782, 11.0299 ], [ 76.2794, 11.0234 ], [ 76.2778, 11.0171 ], [ 76.2807, 11.0137 ], [ 76.2876, 11.0165 ], [ 76.2887, 11.0184 ], [ 76.301, 11.0192 ], [ 76.3215, 11.0148 ], [ 76.3178, 10.9983 ], [ 76.3276, 10.9913 ], [ 76.3617, 10.9891 ], [ 76.3622, 10.9861 ], [ 76.3597, 10.9784 ], [ 76.3543, 10.9678 ], [ 76.3295, 10.97 ], [ 76.3261, 10.9739 ], [ 76.3211, 10.9714 ], [ 76.3181, 10.951 ], [ 76.3144, 10.9473 ], [ 76.3144, 10.9275 ], [ 76.3171, 10.9221 ], [ 76.3231, 10.9159 ], [ 76.3247, 10.9112 ], [ 76.3239, 10.8985 ], [ 76.3132, 10.8998 ], [ 76.3117, 10.9047 ], [ 76.2969, 10.9054 ], [ 76.2896, 10.9118 ], [ 76.2804, 10.9069 ], [ 76.2619, 10.9096 ], [ 76.2569, 10.9068 ], [ 76.2538, 10.8982 ], [ 76.243, 10.8797 ], [ 76.224, 10.8788 ], [ 76.2202, 10.8842 ], [ 76.2192, 10.8888 ], [ 76.2121, 10.8959 ], [ 76.2105, 10.9051 ], [ 76.2064, 10.9063 ], [ 76.2031, 10.9044 ], [ 76.1993, 10.8984 ], [ 76.1974, 10.8907 ], [ 76.1909, 10.89 ], [ 76.1803, 10.8914 ], [ 76.178, 10.8959 ], [ 76.1785, 10.9008 ], [ 76.1746, 10.9032 ], [ 76.1666, 10.899 ], [ 76.1626, 10.907 ], [ 76.155, 10.9067 ], [ 76.1507, 10.9026 ], [ 76.1498, 10.8919 ], [ 76.1419, 10.8827 ], [ 76.138, 10.8816 ], [ 76.1243, 10.8896 ], [ 76.1212, 10.8888 ], [ 76.1201, 10.8815 ], [ 76.1228, 10.8718 ], [ 76.1193, 10.871 ], [ 76.1106, 10.8735 ], [ 76.1079, 10.8718 ], [ 76.1073, 10.8629 ], [ 76.1049, 10.8592 ], [ 76.1025, 10.8587 ], [ 76.0971, 10.862 ], [ 76.0939, 10.8572 ], [ 76.0955, 10.8451 ], [ 76.0945, 10.8394 ], [ 76.0909, 10.8346 ], [ 76.0857, 10.8322 ], [ 76.0599, 10.8303 ], [ 76.0436, 10.8381 ], [ 76.0373, 10.8394 ], [ 76.0332, 10.8371 ], [ 76.0277, 10.8271 ], [ 76.0253, 10.8189 ], [ 76.021, 10.8184 ], [ 76.0189, 10.8151 ], [ 76.0233, 10.8098 ], [ 76.0284, 10.8065 ], [ 76.0271, 10.8003 ], [ 76.04, 10.7965 ] ], [ [ 76.1335, 11.4338 ], [ 76.1374, 11.4202 ], [ 76.1328, 11.4372 ], [ 76.1335, 11.4338 ] ] ], [ [ [ 75.8301, 11.1299 ], [ 75.8385, 11.134 ], [ 75.8363, 11.1282 ], [ 75.8315, 11.1265 ], [ 75.8301, 11.1299 ] ] ], [ [ [ 75.8115, 11.1615 ], [ 75.8112, 11.1596 ], [ 75.8101, 11.1593 ], [ 75.8104, 11.1615 ], [ 75.8115, 11.1615 ] ] ], [ [ [ 76.4662, 9.541 ], [ 76.469, 9.5404 ], [ 76.479, 9.5371 ], [ 76.479, 9.5299 ], [ 76.466, 9.5299 ], [ 76.4662, 9.541 ] ] ], [ [ [ 76.4528, 9.5335 ], [ 76.4518, 9.5436 ], [ 76.4529, 9.5457 ], [ 76.4646, 9.5415 ], [ 76.4643, 9.5299 ], [ 76.4604, 9.5299 ], [ 76.4528, 9.5335 ] ] ], [ [ [ 76.4926, 9.4187 ], [ 76.4977, 9.426 ], [ 76.483, 9.4327 ], [ 76.4855, 9.4487 ], [ 76.4924, 9.4611 ], [ 76.4916, 9.4673 ], [ 76.4935, 9.4706 ], [ 76.4943, 9.4917 ], [ 76.4922, 9.4949 ], [ 76.4855, 9.4952 ], [ 76.4795, 9.4981 ], [ 76.4682, 9.4988 ], [ 76.4665, 9.5037 ], [ 76.466, 9.5272 ], [ 76.4639, 9.5282 ], [ 76.479, 9.5288 ], [ 76.4804, 9.5113 ], [ 76.4807, 9.529 ], [ 76.4985, 9.5288 ], [ 76.5021, 9.531 ], [ 76.4915, 9.536 ], [ 76.4907, 9.5404 ], [ 76.4871, 9.5424 ], [ 76.4804, 9.5382 ], [ 76.4665, 9.5424 ], [ 76.4665, 9.5593 ], [ 76.4654, 9.5593 ], [ 76.4649, 9.5438 ], [ 76.4635, 9.5435 ], [ 76.4404, 9.551 ], [ 76.4385, 9.554 ], [ 76.4265, 9.5551 ], [ 76.4179, 9.5596 ], [ 76.4185, 9.5635 ], [ 76.416, 9.566 ], [ 76.416, 9.5696 ], [ 76.4204, 9.5782 ], [ 76.4232, 9.5932 ], [ 76.4301, 9.6113 ], [ 76.4235, 9.6274 ], [ 76.4174, 9.6332 ], [ 76.4171, 9.6363 ], [ 76.4199, 9.6415 ], [ 76.4254, 9.6413 ], [ 76.421, 9.6451 ], [ 76.4193, 9.6418 ], [ 76.4212, 9.6504 ], [ 76.4199, 9.6499 ], [ 76.4179, 9.6424 ], [ 76.4026, 9.6474 ], [ 76.4046, 9.6646 ], [ 76.4074, 9.6651 ], [ 76.416, 9.6585 ], [ 76.419, 9.6582 ], [ 76.4079, 9.6665 ], [ 76.404, 9.6665 ], [ 76.4049, 9.6726 ], [ 76.4071, 9.6738 ], [ 76.4132, 9.6838 ], [ 76.4149, 9.6901 ], [ 76.4138, 9.6968 ], [ 76.4065, 9.6999 ], [ 76.4032, 9.6965 ], [ 76.4007, 9.6963 ], [ 76.3962, 9.7018 ], [ 76.3874, 9.7007 ], [ 76.3826, 9.7035 ], [ 76.3885, 9.719 ], [ 76.391, 9.7421 ], [ 76.3868, 9.7585 ], [ 76.3779, 9.7657 ], [ 76.3774, 9.7693 ], [ 76.3732, 9.7726 ], [ 76.3743, 9.7776 ], [ 76.3712, 9.7796 ], [ 76.3718, 9.7838 ], [ 76.3679, 9.7901 ], [ 76.369, 9.7943 ], [ 76.374, 9.7985 ], [ 76.3751, 9.7974 ], [ 76.374, 9.794 ], [ 76.3768, 9.7943 ], [ 76.376, 9.796 ], [ 76.3801, 9.8046 ], [ 76.3835, 9.8065 ], [ 76.3904, 9.8168 ], [ 76.3899, 9.8204 ], [ 76.3835, 9.8193 ], [ 76.3824, 9.8243 ], [ 76.3842, 9.8215 ], [ 76.3918, 9.8213 ], [ 76.3943, 9.8179 ], [ 76.3932, 9.8211 ], [ 76.4019, 9.8163 ], [ 76.4113, 9.8158 ], [ 76.4204, 9.8183 ], [ 76.4335, 9.8248 ], [ 76.45, 9.841 ], [ 76.4635, 9.837 ], [ 76.4703, 9.8407 ], [ 76.4756, 9.8395 ], [ 76.4875, 9.8442 ], [ 76.4977, 9.844 ], [ 76.5025, 9.8426 ], [ 76.511, 9.8168 ], [ 76.5217, 9.8171 ], [ 76.5287, 9.8149 ], [ 76.5303, 9.806 ], [ 76.532, 9.8053 ], [ 76.5317, 9.7987 ], [ 76.534, 9.7977 ], [ 76.536, 9.7926 ], [ 76.5462, 9.7957 ], [ 76.5482, 9.8082 ], [ 76.5551, 9.8153 ], [ 76.5583, 9.8154 ], [ 76.5638, 9.8122 ], [ 76.569, 9.8154 ], [ 76.571, 9.8195 ], [ 76.5696, 9.8248 ], [ 76.5707, 9.8342 ], [ 76.5743, 9.834 ], [ 76.5835, 9.8385 ], [ 76.5917, 9.8367 ], [ 76.5969, 9.8321 ], [ 76.598, 9.8345 ], [ 76.6011, 9.8325 ], [ 76.6058, 9.8349 ], [ 76.6004, 9.8415 ], [ 76.6116, 9.8502 ], [ 76.618, 9.8492 ], [ 76.619926787117052, 9.848282482325214 ], [ 76.6212, 9.8525 ], [ 76.6216, 9.861 ], [ 76.6261, 9.8673 ], [ 76.626, 9.871 ], [ 76.6206, 9.8776 ], [ 76.6186, 9.8912 ], [ 76.6205, 9.9058 ], [ 76.6255, 9.9105 ], [ 76.63, 9.9098 ], [ 76.6374, 9.9123 ], [ 76.6509, 9.9091 ], [ 76.6547, 9.9091 ], [ 76.6597, 9.9117 ], [ 76.6671, 9.9116 ], [ 76.6693, 9.9111 ], [ 76.6728, 9.9048 ], [ 76.6795, 9.9001 ], [ 76.6822, 9.8997 ], [ 76.6858, 9.9022 ], [ 76.6876, 9.9076 ], [ 76.6781, 9.9145 ], [ 76.6781, 9.9177 ], [ 76.6827, 9.9224 ], [ 76.6861, 9.921 ], [ 76.6921, 9.9287 ], [ 76.6981, 9.9403 ], [ 76.6973, 9.9434 ], [ 76.704, 9.9475 ], [ 76.7055, 9.9505 ], [ 76.7043, 9.9608 ], [ 76.6979, 9.9796 ], [ 76.7039, 9.9776 ], [ 76.7058, 9.9798 ], [ 76.7139, 9.9737 ], [ 76.7194, 9.9774 ], [ 76.7357, 9.9822 ], [ 76.753, 9.9742 ], [ 76.7527, 9.9814 ], [ 76.7585, 9.9827 ], [ 76.7591, 9.9924 ], [ 76.7536, 10.0036 ], [ 76.7714, 10.0272 ], [ 76.7921, 10.0191 ], [ 76.8036, 10.0113 ], [ 76.8171, 10.0058 ], [ 76.8201, 10.0071 ], [ 76.8273, 10.0159 ], [ 76.8155, 10.0177 ], [ 76.8042, 10.0257 ], [ 76.792, 10.0313 ], [ 76.7815, 10.0339 ], [ 76.7744, 10.0397 ], [ 76.7755, 10.044 ], [ 76.7699, 10.0523 ], [ 76.7576, 10.0541 ], [ 76.7413, 10.0648 ], [ 76.7301, 10.0779 ], [ 76.7146, 10.0868 ], [ 76.7033, 10.0982 ], [ 76.6868, 10.11 ], [ 76.6609, 10.1336 ], [ 76.6537, 10.1341 ], [ 76.6493, 10.1318 ], [ 76.646, 10.1332 ], [ 76.6369, 10.1482 ], [ 76.6312, 10.1539 ], [ 76.64, 10.1838 ], [ 76.6489, 10.1911 ], [ 76.6636, 10.2097 ], [ 76.6691, 10.2326 ], [ 76.6685, 10.244 ], [ 76.6771, 10.2595 ], [ 76.6873, 10.2578 ], [ 76.6968, 10.2621 ], [ 76.7181, 10.2642 ], [ 76.7328, 10.2672 ], [ 76.7381, 10.2701 ], [ 76.7492, 10.2618 ], [ 76.7588, 10.2625 ], [ 76.7642, 10.264 ], [ 76.7646, 10.2693 ], [ 76.7784, 10.27 ], [ 76.7832, 10.2723 ], [ 76.7852, 10.2694 ], [ 76.7878, 10.2695 ], [ 76.7942, 10.2776 ], [ 76.8078, 10.2754 ], [ 76.8166, 10.2718 ], [ 76.8184, 10.2685 ], [ 76.8213, 10.2684 ], [ 76.8241, 10.2699 ], [ 76.8271, 10.276 ], [ 76.8287, 10.2762 ], [ 76.8332, 10.2721 ], [ 76.8352, 10.273 ], [ 76.8538, 10.2646 ], [ 76.8549, 10.2619 ], [ 76.857, 10.2617 ], [ 76.8591, 10.2641 ], [ 76.8667, 10.2608 ], [ 76.8679, 10.2551 ], [ 76.8741, 10.2526 ], [ 76.8768, 10.2492 ], [ 76.8831, 10.2505 ], [ 76.8864, 10.2453 ], [ 76.8918, 10.2431 ], [ 76.8936, 10.2374 ], [ 76.8923, 10.2327 ], [ 76.8987, 10.2326 ], [ 76.9012, 10.2278 ], [ 76.9055, 10.2248 ], [ 76.9093, 10.2232 ], [ 76.9203, 10.2254 ], [ 76.925, 10.2298 ], [ 76.9278, 10.2296 ], [ 76.9392, 10.2211 ], [ 76.9459, 10.2228 ], [ 76.9588, 10.2187 ], [ 76.9708, 10.2087 ], [ 76.9815, 10.2199 ], [ 76.9873, 10.2199 ], [ 76.9914, 10.223 ], [ 76.9937, 10.2277 ], [ 76.9994, 10.2298 ], [ 77.0067, 10.2364 ], [ 77.0152, 10.2376 ], [ 77.016, 10.241 ], [ 77.0186, 10.2418 ], [ 77.0303, 10.2429 ], [ 77.0386, 10.2482 ], [ 77.0425, 10.262 ], [ 77.0338, 10.2722 ], [ 77.0461, 10.2743 ], [ 77.0533, 10.2799 ], [ 77.0511, 10.2829 ], [ 77.0519, 10.2855 ], [ 77.0608, 10.2865 ], [ 77.0734, 10.2958 ], [ 77.0922, 10.3043 ], [ 77.1007, 10.3045 ], [ 77.1083, 10.3072 ], [ 77.1193, 10.3155 ], [ 77.1341, 10.3237 ], [ 77.163, 10.3463 ], [ 77.1814, 10.3432 ], [ 77.189, 10.3462 ], [ 77.1927, 10.3434 ], [ 77.1995, 10.342 ], [ 77.2222, 10.3403 ], [ 77.2225, 10.3285 ], [ 77.2183, 10.322 ], [ 77.2145, 10.3058 ], [ 77.2172, 10.298 ], [ 77.2209, 10.296 ], [ 77.2319, 10.2772 ], [ 77.2505, 10.2538 ], [ 77.2453, 10.2486 ], [ 77.2448, 10.2452 ], [ 77.2465, 10.2206 ], [ 77.2512, 10.2244 ], [ 77.2542, 10.2233 ], [ 77.2556, 10.2255 ], [ 77.2588, 10.2239 ], [ 77.27, 10.2243 ], [ 77.2748, 10.2205 ], [ 77.2804, 10.2073 ], [ 77.2791, 10.204 ], [ 77.2739, 10.2015 ], [ 77.273, 10.1978 ], [ 77.2697, 10.1968 ], [ 77.2714, 10.1941 ], [ 77.2694, 10.1871 ], [ 77.2644, 10.1797 ], [ 77.2591, 10.1554 ], [ 77.2596, 10.1412 ], [ 77.2574, 10.1359 ], [ 77.2576, 10.1322 ], [ 77.261, 10.1287 ], [ 77.2598, 10.1191 ], [ 77.255, 10.1163 ], [ 77.2533, 10.1114 ], [ 77.2399, 10.1141 ], [ 77.2305, 10.1201 ], [ 77.2251, 10.1185 ], [ 77.2187, 10.1113 ], [ 77.2033, 10.1036 ], [ 77.1979, 10.1065 ], [ 77.1946, 10.1062 ], [ 77.1881, 10.0957 ], [ 77.1878, 10.0925 ], [ 77.1899, 10.091 ], [ 77.1907, 10.0812 ], [ 77.1952, 10.0735 ], [ 77.1991, 10.0707 ], [ 77.2044, 10.0685 ], [ 77.2129, 10.0585 ], [ 77.2182, 10.0569 ], [ 77.2245, 10.0455 ], [ 77.2371, 10.0352 ], [ 77.2423, 10.0262 ], [ 77.2481, 10.0202 ], [ 77.2489, 10.0158 ], [ 77.2407, 10.0029 ], [ 77.2409, 10.0001 ], [ 77.2477, 9.9948 ], [ 77.2479, 9.9912 ], [ 77.2451, 9.9862 ], [ 77.2467, 9.9815 ], [ 77.2508, 9.9814 ], [ 77.2488, 9.9774 ], [ 77.2498, 9.9728 ], [ 77.2614, 9.9637 ], [ 77.259, 9.9534 ], [ 77.2499, 9.9425 ], [ 77.2402, 9.9431 ], [ 77.2366, 9.9414 ], [ 77.2359, 9.9434 ], [ 77.2347, 9.9428 ], [ 77.2345, 9.9381 ], [ 77.2219, 9.9228 ], [ 77.2169, 9.9058 ], [ 77.2044, 9.8943 ], [ 77.2065, 9.8778 ], [ 77.2027, 9.8747 ], [ 77.1991, 9.866 ], [ 77.2092, 9.8538 ], [ 77.2133, 9.852 ], [ 77.2183, 9.8535 ], [ 77.2237, 9.849 ], [ 77.2237, 9.843 ], [ 77.2138, 9.8385 ], [ 77.2134, 9.8329 ], [ 77.215, 9.8309 ], [ 77.2089, 9.8145 ], [ 77.2124, 9.8129 ], [ 77.219, 9.8133 ], [ 77.2195, 9.8088 ], [ 77.2271, 9.8063 ], [ 77.2328, 9.7973 ], [ 77.232, 9.7944 ], [ 77.234, 9.7885 ], [ 77.2267, 9.7868 ], [ 77.2225, 9.7818 ], [ 77.2098, 9.7799 ], [ 77.2107, 9.7664 ], [ 77.2186, 9.76 ], [ 77.2124, 9.7554 ], [ 77.2114, 9.7452 ], [ 77.206, 9.7375 ], [ 77.2082, 9.7217 ], [ 77.1999, 9.7173 ], [ 77.1899, 9.7155 ], [ 77.189, 9.6975 ], [ 77.1917, 9.6862 ], [ 77.1859, 9.6782 ], [ 77.1848, 9.6715 ], [ 77.1822, 9.6687 ], [ 77.1796, 9.6604 ], [ 77.1725, 9.6562 ], [ 77.1731, 9.6518 ], [ 77.1689, 9.6516 ], [ 77.1657, 9.6482 ], [ 77.1659, 9.638 ], [ 77.1606, 9.6302 ], [ 77.1622, 9.6198 ], [ 77.1546, 9.614 ], [ 77.1549, 9.6084 ], [ 77.1519, 9.606 ], [ 77.1555, 9.6015 ], [ 77.1673, 9.6007 ], [ 77.1746, 9.5972 ], [ 77.1791, 9.6015 ], [ 77.184, 9.6024 ], [ 77.186, 9.6059 ], [ 77.1959, 9.6042 ], [ 77.1966, 9.5957 ], [ 77.2008, 9.5924 ], [ 77.2054, 9.5923 ], [ 77.2086, 9.5888 ], [ 77.2091, 9.5844 ], [ 77.2228, 9.5728 ], [ 77.2299, 9.5759 ], [ 77.2389, 9.5734 ], [ 77.2505, 9.5654 ], [ 77.255, 9.565 ], [ 77.2579, 9.5682 ], [ 77.2611, 9.5667 ], [ 77.2753, 9.5766 ], [ 77.275, 9.581 ], [ 77.2795, 9.5801 ], [ 77.2865, 9.5873 ], [ 77.3043, 9.593 ], [ 77.309, 9.5888 ], [ 77.3137, 9.5901 ], [ 77.3148, 9.5886 ], [ 77.3108, 9.5845 ], [ 77.312, 9.5782 ], [ 77.3098, 9.576 ], [ 77.3107, 9.5704 ], [ 77.321, 9.5674 ], [ 77.3248, 9.5632 ], [ 77.3285, 9.5732 ], [ 77.3409, 9.5951 ], [ 77.3513, 9.588 ], [ 77.3492, 9.5865 ], [ 77.3448, 9.5876 ], [ 77.3432, 9.5848 ], [ 77.3409, 9.5776 ], [ 77.3453, 9.5673 ], [ 77.3437, 9.5638 ], [ 77.3405, 9.5641 ], [ 77.3359, 9.5568 ], [ 77.3381, 9.5503 ], [ 77.3466, 9.5486 ], [ 77.3488, 9.5462 ], [ 77.3506, 9.5403 ], [ 77.3505, 9.5263 ], [ 77.3547, 9.5239 ], [ 77.361, 9.5162 ], [ 77.3663, 9.5148 ], [ 77.3707, 9.5087 ], [ 77.3868, 9.5167 ], [ 77.3864, 9.5068 ], [ 77.3901, 9.5046 ], [ 77.3949, 9.5044 ], [ 77.3962, 9.4965 ], [ 77.3879, 9.491 ], [ 77.3855, 9.4862 ], [ 77.3841, 9.4698 ], [ 77.3868, 9.4674 ], [ 77.3822, 9.4612 ], [ 77.3774, 9.4587 ], [ 77.3786, 9.4508 ], [ 77.3722, 9.4453 ], [ 77.3636, 9.4433 ], [ 77.3602, 9.4437 ], [ 77.3566, 9.4479 ], [ 77.3516, 9.4497 ], [ 77.3454, 9.4453 ], [ 77.3429, 9.4404 ], [ 77.3343, 9.4311 ], [ 77.3346, 9.4239 ], [ 77.3319, 9.4214 ], [ 77.3301, 9.4152 ], [ 77.3217, 9.4057 ], [ 77.3214, 9.4018 ], [ 77.3274, 9.3941 ], [ 77.3276, 9.3898 ], [ 77.3249, 9.3835 ], [ 77.3258, 9.3787 ], [ 77.3198, 9.3761 ], [ 77.3195, 9.3633 ], [ 77.323, 9.3586 ], [ 77.32, 9.3548 ], [ 77.3206, 9.3511 ], [ 77.3097, 9.3346 ], [ 77.3113, 9.3279 ], [ 77.3001, 9.325 ], [ 77.2906, 9.3277 ], [ 77.2841, 9.3275 ], [ 77.2852, 9.3212 ], [ 77.2823, 9.3196 ], [ 77.2854, 9.3156 ], [ 77.2868, 9.3101 ], [ 77.2835, 9.3009 ], [ 77.2777, 9.2953 ], [ 77.2668, 9.2909 ], [ 77.2671, 9.2817 ], [ 77.2741, 9.2632 ], [ 77.2676, 9.2624 ], [ 77.2518, 9.2704 ], [ 77.2454, 9.2712 ], [ 77.2413, 9.2766 ], [ 77.2309, 9.2799 ], [ 77.2297, 9.2731 ], [ 77.2255, 9.2761 ], [ 77.2232, 9.2736 ], [ 77.2211, 9.2836 ], [ 77.214, 9.2882 ], [ 77.211, 9.2872 ], [ 77.2104, 9.3048 ], [ 77.2208, 9.3167 ], [ 77.2171, 9.3225 ], [ 77.2238, 9.3306 ], [ 77.2205, 9.3402 ], [ 77.2268, 9.3495 ], [ 77.2277, 9.3605 ], [ 77.2334, 9.3723 ], [ 77.2321, 9.3763 ], [ 77.214, 9.4018 ], [ 77.2165, 9.4072 ], [ 77.2148, 9.4107 ], [ 77.2104, 9.4095 ], [ 77.2097, 9.4131 ], [ 77.207, 9.4156 ], [ 77.2085, 9.4238 ], [ 77.1986, 9.4297 ], [ 77.1959, 9.4339 ], [ 77.1917, 9.4326 ], [ 77.1942, 9.4371 ], [ 77.1893, 9.4421 ], [ 77.1862, 9.4404 ], [ 77.1819, 9.4418 ], [ 77.1768, 9.4404 ], [ 77.174, 9.4413 ], [ 77.1723, 9.4462 ], [ 77.1694, 9.4452 ], [ 77.1669, 9.4485 ], [ 77.1695, 9.4544 ], [ 77.1675, 9.4554 ], [ 77.1657, 9.4617 ], [ 77.1537, 9.452 ], [ 77.1538, 9.4565 ], [ 77.1524, 9.4556 ], [ 77.1513, 9.4609 ], [ 77.14, 9.4605 ], [ 77.1278, 9.4519 ], [ 77.1259, 9.4614 ], [ 77.1284, 9.4771 ], [ 77.1263, 9.4807 ], [ 77.1161, 9.4831 ], [ 77.1048, 9.4693 ], [ 77.089, 9.4698 ], [ 77.0725, 9.4527 ], [ 77.0582, 9.4465 ], [ 77.0547, 9.4461 ], [ 77.0479, 9.4505 ], [ 77.0437, 9.4512 ], [ 77.0393, 9.4514 ], [ 77.0354, 9.448 ], [ 77.0332, 9.4426 ], [ 77.0419, 9.4248 ], [ 77.0523, 9.408 ], [ 77.0389, 9.4088 ], [ 77.0218, 9.404 ], [ 77.0145, 9.399 ], [ 77.0066, 9.3983 ], [ 76.9988, 9.4005 ], [ 76.9992, 9.4114 ], [ 76.9902, 9.4104 ], [ 76.9846, 9.4147 ], [ 76.9775, 9.4141 ], [ 76.963, 9.4165 ], [ 76.9484, 9.4212 ], [ 76.9253, 9.4216 ], [ 76.9243, 9.4136 ], [ 76.9215, 9.4141 ], [ 76.9176, 9.4113 ], [ 76.9097, 9.4099 ], [ 76.9076, 9.418 ], [ 76.896, 9.4194 ], [ 76.8706, 9.4365 ], [ 76.8588, 9.4381 ], [ 76.8404, 9.4491 ], [ 76.8358, 9.4388 ], [ 76.8158, 9.442 ], [ 76.8137, 9.4389 ], [ 76.8105, 9.4378 ], [ 76.8065, 9.4439 ], [ 76.8018, 9.4467 ], [ 76.7876, 9.446 ], [ 76.7859, 9.4428 ], [ 76.783, 9.4446 ], [ 76.7797, 9.4437 ], [ 76.7789, 9.4368 ], [ 76.7685, 9.4382 ], [ 76.7561, 9.4321 ], [ 76.7497, 9.4314 ], [ 76.7473, 9.4346 ], [ 76.745, 9.4427 ], [ 76.7429, 9.4447 ], [ 76.738, 9.4441 ], [ 76.7364, 9.4458 ], [ 76.7393, 9.4537 ], [ 76.7332, 9.4657 ], [ 76.7202, 9.465 ], [ 76.7171, 9.4618 ], [ 76.7179, 9.4573 ], [ 76.7048, 9.4515 ], [ 76.7004, 9.447 ], [ 76.6948, 9.4466 ], [ 76.6874, 9.456 ], [ 76.6858, 9.4681 ], [ 76.6723, 9.4697 ], [ 76.6654, 9.474 ], [ 76.6587, 9.4721 ], [ 76.6399, 9.4728 ], [ 76.6274, 9.4683 ], [ 76.6266, 9.4622 ], [ 76.6223, 9.4557 ], [ 76.6179, 9.4621 ], [ 76.6154, 9.4624 ], [ 76.6121, 9.455 ], [ 76.6133, 9.4521 ], [ 76.6011, 9.4525 ], [ 76.5965, 9.451 ], [ 76.5952, 9.4455 ], [ 76.5912, 9.4501 ], [ 76.589, 9.4494 ], [ 76.5892, 9.4412 ], [ 76.5861, 9.4412 ], [ 76.5777, 9.4366 ], [ 76.5773, 9.4333 ], [ 76.5795, 9.4292 ], [ 76.5778, 9.4195 ], [ 76.5827, 9.41 ], [ 76.5799, 9.4077 ], [ 76.568, 9.414 ], [ 76.5641, 9.4132 ], [ 76.5516, 9.4043 ], [ 76.5469, 9.4033 ], [ 76.5432, 9.4039 ], [ 76.5397, 9.4128 ], [ 76.5349, 9.4144 ], [ 76.5308, 9.4137 ], [ 76.5267, 9.4076 ], [ 76.5226, 9.4067 ], [ 76.5204, 9.409 ], [ 76.5172, 9.4069 ], [ 76.5166, 9.4045 ], [ 76.5137, 9.4049 ], [ 76.5103, 9.4002 ], [ 76.502, 9.4006 ], [ 76.5018, 9.3931 ], [ 76.4961, 9.3949 ], [ 76.4954, 9.4086 ], [ 76.4969, 9.4105 ], [ 76.4948, 9.4175 ], [ 76.4926, 9.4187 ] ] ], [ [ [ 76.381, 9.7168 ], [ 76.3818, 9.7171 ], [ 76.3815, 9.7149 ], [ 76.3807, 9.7146 ], [ 76.381, 9.7168 ] ] ] ] } }
]
}
